ADD_ID,BLDG_ID,PLACENAME,PLACENAME2,PLACENAME3,PLACENAME4,ABBREVIATEDPLACENAME,BUILDING_SHORTCODE,STATUS,ROT,ACCESSIBLE,POWER_DOOR,BL_CLASS,ENT_TYPE,LAT,LONG
AD-544,WSTR,Westchester,Westchester,,,,,Current,30,1,0,l3,,49.25688425018155,-123.24904655199074
AD-206,LIUG,Liu Institute for Global Issues,Liu Institute,,,,,Current,208.20000000000002,1,1,l2,,49.26762694770149,-123.25910311458875
AD-157,LSK,The Leonard S. Klinck Building,Klinck,,<Null>,,LSK,Current,298.1,1,0,l2,,49.26564367401477,-123.25521403914412
AD-48,GRAT,Granite Terrace,Granite Terrace,,,,,Current,208.20000000000002,1,0,l3,,49.25511780935342,-123.23644469361479
AD-165,FNLH,First Nations Longhouse,First Nations Longhouse,House of Learning,,,FNLH,Current,89.9,1,1,l1,,49.26552933721503,-123.25720436620577
AD-249,HENN,Hennings Building,Hennings,,,,HENN,Current,298.1,0,0,l2,,49.26665040611226,-123.25235860128817
AD-211,MATH,Mathematics Building,Math,,,,MATH,Current,208.20000000000002,0,0,l2,,49.266504158348866,-123.25541533263717
AD-251,HEBB,Hebb Building,Hebb,,,,HEBB,Current,298.1,1,0,l2,,49.2661695505724,-123.2518235908517
AD-252,TFS,Totem Field Studios,Totem Field Studios,,,,TFS,Current,28.2,1,0,l2,,49.256112551282705,-123.24909335328061
AD-235,TAPS,Tapestry at Wesbrook Village,Tapestry,Tapestry North,,,,Current,28.2,1,0,l3,,49.25460995796557,-123.23514830139055
AD-161,BEBC,Beaty Biodiversity Centre,Beaty,Beaty Biodiversity Museum,<Null>,,,Current,28.2,1,0,Attraction,,49.263449983852965,-123.2511161759892
AD-257,PAPC,Pulp and Paper Centre,Pulp and Paper,,,,,Current,208.20000000000002,1,0,l2,,49.261539570390376,-123.24730196070085
AD-85,PNCN,Ponderosa Commons North,Ponderosa Commons,Cedar/Oak House,<Null>,,,Current,118.10000000000001,1,0,l3,,49.264253597258225,-123.2560679539664
AD-259,RUGB,Rugby Pavilion,Rugby,,,,,Current,28.2,1,0,l2,,49.25858074049815,-123.24410642453824
AD-35,BINT,Binning Tower,Binning,,,,,Current,208.20000000000002,1,0,l3,,49.25550090047667,-123.23121767269059
AD-91,ACOM,Acadia Community Centre,Acadia Park Residence,,Acadia Community Centre,,,Current,208.20000000000002,1,0,l3,,49.262715466143526,-123.23729035447609
AD-277,WPRO,Wesbrook Professional Centre,Wesbrook Professional Centre,,,,,Current,28.2,1,0,l3,,49.254384829937486,-123.23641416744971
AD-149,AQUA,UBC Aquatic Centre,Aquatic Centre,Swimming Pool,,,,Current,28.2,1,1,Attraction,,49.2673311016929,-123.24885790249161
AD-295,THUN,Doug Mitchell Thunderbird Sports Centre,Doug Mitchell Centre,Thunderbird Sports Centre,,,,Current,208.20000000000002,1,1,Attraction,,49.260533849845395,-123.24133513363543
AD-1036,MUSM,Museum of Anthropology,MOA,,,MOA,MUSM,Current,158.98,1,1,Attraction,,49.269132614082515,-123.25929777005611
AD-317,GUNN,Chan Gunn Pavilion,Chan Gunn,,,,,Current,208.20000000000002,1,1,l2,,49.26080019068104,-123.24128279698171
AD-311,PINE,Pine House,Pine House,Wesbrook Lot 27,,,,Current,102.8,1,0,l3,,49.25123029139013,-123.23427636717285
AD-310,VIRT,Virtuoso,Virtuoso,Wesbrook Lot 23,,,,Current,295,1,0,l3,,49.25094824757159,-123.2342559832254
AD-312,CYPR,Cypress House,Cypress House,Wesbrook Lot 29,,,,Current,308.40000000000003,1,0,l3,,49.2519959487544,-123.23484738149247
AD-817,FAIR,Fairview Crescent Residence,Fairview Crescent Residence,,,,,Current,28.1,1,0,Residence,,49.26326445875703,-123.24075573561544
AD-37,CRSW,Crescent West,Crescent West,,,,,Current,106.60000000000001,1,0,l3,,49.252869349161976,-123.23302497038702
AD-303,PNCE,Ponderosa Commons East,Audain Art Centre,Spruce House,,,,Current,298.1,1,0,l1,,49.26389324951343,-123.2547002918326
AD-163,DSOM,Dorothy Somerset Studios,Somerset Studios,Hut M-18,<Null>,,DSOM,Current,28.2,0,0,Attraction,,49.2646902374931,-123.25472673495356
AD-104,AUDI,Old Auditorium,Old Aud,,,,AUDI,Current,208.20000000000002,1,0,Attraction,,49.266996083418405,-123.25582422010285
AD-197,ACU,Koerner Pavilion,Koerner,Hospital,Urgent Care,,ACU,Current,208.20000000000002,1,1,l1,,49.26415848047819,-123.24555198339723
AD-269,STAD,Thunderbird Stadium,Thunderbird Stadium,David Sidoo Field,,,STAD,Current,208.20000000000002,1,0,Attraction,,49.25483835958421,-123.24435563460281
AD-184,TENN,UBC Tennis Centre,Tennis Bubble,,<Null>,,,Current,298.1,1,0,l2,,49.259609657938924,-123.24362708522246
AD-49,MEWS,The Mews,The Mews,,,,,Current,208.20000000000002,1,0,l3,,49.254590863635414,-123.23555154225745
AD-221,HSCC,Detwiller Pavilion,Detwiller,,Detwiller Pavilion,,HSCC,Current,208.20000000000002,1,1,l2,,49.26383295557309,-123.24448081609165
AD-169,FPIN,FPInnovations,FP Innovations,Forintek,,,,Current,208.20000000000002,1,0,l2,,49.256948394133644,-123.2441042975118
AD-93,OADM,Old Administration Building,Old Admin,,,,,Current,298.1,1,0,l2,,49.267251765015224,-123.255528734938
AD-5,GRNC,Green College,Green College,Adminstration Building F,,,,Current,289.8,1,0,Residence,,49.271052017479995,-123.25637576296465
AD-209,KOER,Walter C. Koerner Library,Koerner Library,,,,,Current,208.20000001,1,1,l1,,49.266704543207936,-123.25498879263364
AD-173,OFRH,Old Fire Hall,Old Fire Hall,,,,,Current,298.1,0,0,l2,,49.26509469139494,-123.255612909645
AD-321,CORS,Corus,Corus,,,,,Current,118.10000000000001,1,0,l3,,49.2705541577033,-123.24937474758475
AD-24,ORCH,Orchard Commons,Orchard Commons,,,,,Current,118.10000000000001,1,1,Residence,,49.260213800571435,-123.25041920241426
AD-158,ENSC,Engineering Student Centre,ESC,Engineering Undergraduate Society,Cheese,EUS,,Current,118.10000000000001,1,1,l2,,49.26208335813297,-123.24910886590133
AD-1038,TOTM,Totem Park Residence ,Totem Park Residence ,Totem Park Commonsblock,,,,Current,118.10000000000001,1,0,Residence,,49.25779912111427,-123.2528299730274
AD-200,INTL,International House,International House,I- House,,I House,,Current,208.20000000000002,0,0,l2,,49.26788409461132,-123.25883626357967
AD-178,EOSM,Earth and Ocean Sciences ,EOS,EOS Main,,EOS,EOSM,Current,208.20000000000002,1,0,l1,,49.26254851689978,-123.25228204117957
AD-116,BOOK,UBC Bookstore,Bookstore,UBC Bookstore,,,,Current,208.20000000000002,1,0,Attraction,,49.26516071486311,-123.2503467131913
AD-183,OSBO,Robert F. Osborne Centre,Osborne Centre,Osborne Gym,Unit 1,Osborne,OSBO,Current,30,1,0,l2,,49.26019503590944,-123.24398835677482
AD-69,PGRA,Point Grey Apartments ,Point Grey Apartments ,Osoyoos Housing,,,,Current,208.20000000000002,1,1,l3,,49.25998232397958,-123.2379293223955
AD-128,CHSC,Child Care Services Administration Building,Child Care Admin Building,Child Care Main Building,CCS Admin,,CHSC,Current,170,1,0,l2,,49.261139257027835,-123.23422150813202
AD-172,MARN,Marine Drive Residence ,Marine Drive Residence ,Marine Drive Commonsblock,Building 3,MDR3,,Current,208.20000000000002,1,0,Residence,,49.26150039767594,-123.25652127145966
AD-150,ESB,Earth Sciences Building,Earth Sciences,Science Dean office,,ESB,ESB,Current,208.20000000000002,1,0,l1,,49.263201102225416,-123.25195584298208
AD-177,GEOG,Geography Building,Geography,,,,GEOG,Current,28.2,0,0,l2,,49.26579138398768,-123.25622421192158
AD-203,ALRD,Allard Hall,Allard Hall,Peter A. Allard School of Law ,<Null>,LAW,ALRD,Current,28.2,1,0,l1,,49.26985285890194,-123.25361001133689
AD-122,BUTO,Buchanan Tower,Buchanan Tower,,,,BUTO,Current,208.20000000000002,0,0,l2,,49.26864027585905,-123.25324553160645
AD-290,WMAX,West Mall Annex,West Mall Annex,,,,WMAX,Current,208.20000000000002,0,0,l2,,49.26627217751006,-123.25709269062925
AD-133,CLCK,Ladner Clock Tower,Clock Tower,,,,,Current,238.20000000000002,1,0,l2,,49.267366649157566,-123.25365002537255
AD-125,CHEM,Chemistry Building,Chemistry,Chemistry Block D Centre Wing,,Chem,CHEM,Current,28.2,0,1,l2,,49.2658864470959,-123.25312024251072
AD-98,ANGU,Henry Angus Building,Henry Angus,Sauder School of Business,,Sauder,ANGU,Current,208.20000000000002,1,0,l1,,49.265052943250566,-123.25353754758825
AD-278,STJC,St. John's College,St. John's College,Saint John's,,,,Current,208.20000000000002,1,1,Residence,,49.26298441796793,-123.2565497028413
AD-129,CSTB,Continuing Studies Building,Continuing Studies,English Language Institute,,ELI,,Current,208.20000000000002,1,0,l1,,49.26349397833157,-123.25477436548121
AD-151,SCRF,Neville Scarfe Building ,Scarfe,Faculty of Education,<Null>,,SCRF,Current,208.20000000000002,1,0,l1,,49.26409090644421,-123.25300301055321
AD-256,KENN,Douglas Kenny Building,Kenny,Psychology,<Null>,,KENN,Current,28.2,1,1,l2,,49.26341590363354,-123.25422747194935
AD-135,MCDN,JB Macdonald Building,Macdonald,Dentistry Building,,,MCDN,Current,208.20000000000002,1,1,l2,,49.265333592650734,-123.24512925833325
AD-189,FNH,Food Nutrition and Health Building,Food Nutrition Health,,<Null>,FNH,FNH,Current,208.20000000000002,1,0,l2,,49.26411328617593,-123.2495719994463
AD-208,SPPH,School of Population & Public Health,SPPH,,,SPPH,SPPH,Current,28.2,1,1,l2,,49.26405390258688,-123.24862483158027
AD-195,BIRC,Biomedical Research Centre,Biomedical,Biomedical Building,<Null>,,,Current,28.2,1,0,l2,,49.264014170704236,-123.24738019325947
AD-174,WDPL,Wood Drying Laboratory,Wood Lab,,,,,Current,28.2,1,0,l2,,49.261490794071356,-123.25230520669267
AD-246,UNSB,University Services Building,USB,Campus Mail,,USB,,Current,208.20000000000002,1,0,l2,,49.261692427394465,-123.25387260507769
AD-222,AMBS,Ambulance Station,Ambulance,,,,,Current,208.20000000000002,1,0,l2,,49.26326401328588,-123.24355330559668
AD-159,MCLD,MacLeod Building,MacLeod,Hector MacLeod Building,,,MCLD,Current,28.2,0,0,l2,,49.26148607109459,-123.24948489970352
AD-175,MCML,HR MacMillan Building,MacMillan,Faculty of Land and Food Systems,<Null>,,MCML,Current,208.20000000000002,1,1,l1,,49.26087212518955,-123.25081672432735
AD-96,LNDA,Landscape Architecture Annex,Landscape Architecture,,,,TT21,Current,208.20000000000002,0,0,l2,,49.260625647551365,-123.24997521030929
AD-227,GMGB,Gerald McGavin Building,McGavin,,,,,Current,28.2,1,0,l2,,49.26163511088655,-123.24682597313908
AD-194,DRIX,Donald Rix Building,Donald Rix,,,,,Current,208.20000000000002,1,0,l2,,49.26220014477332,-123.24637875648307
AD-21,FRAS,Fraser Hall,Fraser Hall,,,,,Current,28.2,1,0,l3,,49.261474170740854,-123.24074993043665
AD-42,PROM,Promontory,Promontory,,,,,Current,28.2,1,0,l3,,49.255897710650274,-123.2478814895058
AD-6,SOPR,Sopron House,Sopron House,,,,,Current,208.20000000000002,1,0,l3,,49.262197724558106,-123.2352896582052
AD-88,SORO,Panhellenic House,Panhellenic House,Sorority House,<Null>,,,Current,28.2,1,0,l3,,49.26008200064457,-123.23966684175878
AD-92,KIDS,Kids Club,Kids Club,,,,,Current,28.2,1,0,l2,,49.26170908720111,-123.23491437358656
AD-31,UHIL,University Hill Secondary School,U-Hill Secondary,High school,,,,Current,28.2,1,0,l1,,49.25387156359202,-123.23975968801287
AD-89,FRAT,Fraternity Village ,Fraternity Village ,,,,,Current,28.2,1,0,l3,,49.25972439891988,-123.23942403024232
AD-54,MBAH,MBA House,MBA House,,,,,Current,208.20000000000002,1,0,l3,,49.25394825597759,-123.23501848626617
AD-27,LARK,Larkspur House,Larkspur House,Faculty Staff Housing Building F,,,,Current,28.2,1,0,l3,,49.25349282965603,-123.23423473439668
AD-17,PEMB,The Pemberley,The Pemberley,Hampton Place Lot 10 ,,,,Current,28.2,1,0,l3,,49.25789257087963,-123.23251432557082
AD-15,REGE,The Regency,The Regency,Hampton Place Lot 8 ,,,,Current,28.2,1,0,l3,,49.25905066938343,-123.23307660196572
AD-8,WHAM,West Hampstead,West Hampstead,Hampton Place Lot 2,,,,Current,208.20000000000002,1,0,l3,,49.25779720924951,-123.23526863609024
AD-18,TRMH,TRIUMF House,TRIUMF House,TRIUMF Visitor's Residence,,,,Current,208.20000000000002,1,0,l3,,49.26207834451307,-123.24109242989645
AD-72,CARY,Carey Centre,Carey Centre,,,,,Current,28.2,1,0,l2,,49.27143408213041,-123.24901187772356
AD-80,ARGW,Argyll House West,Argyll House West,,,,,Current,208.20000000000002,1,0,l3,,49.27091734760052,-123.25122239703252
AD-40,CLEM,Clement's Green,Clement's Green,,,,,Current,28.2,1,0,l3,,49.25804677005425,-123.24608136030164
AD-41,REFL,Reflections,Reflections,,,,,Current,208.20000000000002,1,0,l3,,49.2582726826302,-123.24685923289071
AD-43,OBCC,Old Barn Community Centre,Old Barn,,,,,Current,208.20000000000002,1,0,l1,,49.25901379837067,-123.24827430376074
AD-39,JOUR,Journey,Journey,,,,,Current,28.2,1,0,l3,,49.258020796245276,-123.24749763069546
AD-101,LASR,Frederic Lasserre Building,Lasserre,,,,LASR,Current,208.20000000000002,1,0,l2,,49.2676711505183,-123.25567878186021
AD-103,TFPB,Theatre-Film Production Building,Theatre-Film,,,,TFPB,Current,208.20000000000002,0,0,l2,,49.26393869386068,-123.25382368615365
AD-164,BINN,B.C. Binning Studios,Binning Studios,Hut M-17,<Null>,,BINN,Current,208.20000000000002,1,1,l2,,49.26466302487973,-123.25479948149847
AD-275,STAH,St. Andrew's Hall,St. Andrew's Hall,St. Andrew's Residence,,,,Current,208.20000000000002,1,0,l3,,49.27037460829107,-123.25165894545948
AD-120,BOTG,UBC Botanical Garden,Botanical Garden,Admission and Shop in the Garden ,UBC Botanical Garden and Centre for Plant Research,,,Current,78.8,1,0,l2,,49.25398207576723,-123.25057772575813
,,,,,,,,,,,,,,nan,nan
AD-261,SRES,Staging Environmental Research Centre,SERC,,,SERC,,Current,30,1,0,l2,,49.24538208792584,-123.22811667712106
AD-292,PONA,Ponderosa Annex A,A,Ponderosa Annexes,A,,PONA,Current,118.2,1,0,l2,,49.26519153641453,-123.25621201082684
AD-294,PONC,Ponderosa Annex C,C,Ponderosa Annexes,C,,PONC,Current,208.20000000000002,0,0,l2,,49.26494756482546,-123.25626707331068
,,,,,,,,,,,,,,nan,nan
AD-243,CIRS,Centre for Interactive Research on Sustainability (CIRS),CIRS,,,CIRS,CIRS,Current,28.2,1,0,l1,,49.26189631618352,-123.25330231712258
AD-299,PONF,Ponderosa Annex F,F,Ponderosa Annexes,F,,PONF,Current,118.2,1,0,l2,,49.264969828464125,-123.25700351055167
AD-293,PONB,Ponderosa Annex B,B,Ponderosa Annexes,B,,PONB,Current,208.20000000000002,1,0,l2,,49.265012880612694,-123.25601805886963
AD-239,MTIN,MT Innovations,MT Innovations,,,,,Current,10.1,1,0,l2,,49.25010867039837,-123.23106658455393
AD-300,PONG,Ponderosa Annex G,G,Ponderosa Annexes,G,,PONG,Current,298.2,0,0,l2,,49.26460363611973,-123.25632720343268
AD-52,WEBH,Webber House,Webber House,,,,,Current,28.2,1,0,l3,,49.25320634105789,-123.23687985529733
AD-298,PONE,Ponderosa Annex E,E,Ponderosa Annexes,E,,PONE,Current,208.20000000000002,1,0,l2,,49.26470324400358,-123.25677027769531
AD-60,ULTM,Ultima,Ultima,,,,,Current,210.20000000000002,1,0,l3,,49.2527815110806,-123.23423117779555
AD-79,CHHS,Chancellor House,Chancellor House,,,,,Current,118.10000000000001,1,0,l3,,49.271367325316824,-123.2513263106591
AD-282,SOMH,Vancouver School of Theology (VST),VST,Somerville House,,,,Current,118.10000000000001,0,0,l3,,49.27019616538523,-123.2510488548094
AD-280,COST,Coast,Coast,,,,,Current,118.10000000000001,0,0,l3,,49.27084430158343,-123.25245905538786
AD-76,AXIS,Axis ,Axis ,,,<Null>,,Current,298.1,1,0,l3,,49.270112031723414,-123.25235974526639
AD-180,CGPH,Cecil Green Park House,Cecil Green Park,,,,,Current,89.2,1,0,Attraction,,49.271335386389865,-123.25772375381118
AD-240,MBOL,Mary Bollert Hall,Bollert Hall,,,,,Current,86.8,0,1,l2,,49.2705423460572,-123.2562733424123
AD-181,CGPC,Cecil Green Park Coach House,Coach House,,,,,Current,2.34,0,0,l2,,49.27100088399755,-123.25857586099639
AD-73,ESSE,Esse,Esse,,,,,Current,102,1,0,l3,,49.27098480755723,-123.24824273962554
AD-171,FRWO,Frederic Wood Theatre,Wood Theatre,Freddy Wood,<Null>,,FRWO,Current,298.1,1,0,Attraction,,49.268224725446565,-123.25675383390106
AD-229,MUSC,Music Building,Music,Roy Barnett Recital Hall,,,MUSC,Current,118.10000000000001,1,1,Attraction,,49.26728225024153,-123.25654335502551
AD-148,SOJ,Sing Tao Building,Sing Tao,School of Journalism,,,SOJ,Current,298.1,1,0,l2,,49.26784492126455,-123.25786678343083
AD-67,PREZ,Norman MacKenzie House,Norman MacKenzie House,President's Residence,<Null>,<Null>,,Current,134.5,1,1,l2,,49.267577426477224,-123.26115472342426
AD-75,STIR,Stirling House,Stirling House,,,,,Current,298.1,1,0,l3,,49.270550954962324,-123.2525008051958
AD-179,THEA,Thea Koerner House,Thea Koerner House,Graduate Student Centre,GSS,,,Current,118.10000000000001,1,0,l1,,49.26852355042524,-123.2577652224163
AD-182,MGYM,War Memorial Gymnasium,War Memorial,Gym,,,MGYM,Current,118.10000000000001,0,0,Attraction,,49.26652669399434,-123.24798315968775
AD-272,PARN,North Parkade,North Parkade,,,,,Current,118.10000000000001,1,0,Parkade,,49.26880596962414,-123.25049057065306
AD-121,BRCK,Brock Hall  ,Brock Hall  ,Student Services and Welcome Centre,<Null>,,BRCK,Current,118.10000000000001,1,1,l1,,49.268518296209265,-123.25185583250817
AD-274,ALUM,Robert H. Lee Alumni Centre,Alumni Centre,,,ALUMNI,,Current,118.10000000000001,1,0,l1,,49.2658633457433,-123.24987573058382
AD-1012,WOOD,P. A. Woodward Instructional Resources Centre,Woodward IRC,Faculty of Medicine,<Null>,IRC,WOOD,Current,298.1,1,1,l2,<Null>,49.26479952934652,-123.24733988940615
AD-136,DASB,David Strangway Building,Strangway,,,,,Current,282.6,1,0,l1,,49.2660254921761,-123.24602672336816
AD-291,WESB,Wesbrook Building,Wesbrook Building,,,,WESB,Current,334.7,0,0,l2,,49.26537225945295,-123.2495585065731
AD-297,GAGE,Walter H. Gage Residence ,Gage Residence,Walter H. Gage Residence Commonsblock,,Gage,,Current,118.10000000000001,1,1,Residence,,49.269435975619174,-123.24961746660718
AD-216,MEDC,Medical Sciences Block C,Medical Sciences C,,,,MEDC,Current,118.10000000000001,1,0,l2,,49.26499995384959,-123.24757786778099
AD-220,WLIB,Woodward Library,Woodward Library,,,,WLIB,Current,298.1,0,0,l1,,49.2647871775619,-123.24737497629258
AD-110,CFCM,Centre for Comparative Medicine (CCM),CCM,,,,,Current,64.2,1,0,l2,,49.24630311431765,-123.23306376931544
AD-234,NRCI,NRC Institute for Fuel Cell Innovation,NRC,,,NRC Institute,,Current,319.5,1,0,l2,,49.245360646053925,-123.23256017767127
AD-260,MARF,Materials Recovery Facility,Material Recovery Facility,,,,,Current,282.1,1,0,l2,,49.24579543671251,-123.22854252904861
AD-262,BONR,Building Operations Nursery,Building Ops Nursery,Plant Operations Greenhouses,<Null>,,,Current,0.2706,1,0,l2,,49.24422921309085,-123.22886774123272
AD-126,COMP,In-Vessel Composting Facility,Composting Facility,,,,,Current,9.5,1,0,l2,,49.24492167098671,-123.2281025149089
AD-127,ENSF,Environmental Services Facility ,Environmental Services Facility ,,,,,Current,332,1,0,l2,,49.243453949137965,-123.22876633909605
AD-196,PUDP,Purdy Pavilion,Purdy,,Purdy Pavilion,,,Current,208.20000000000002,1,1,l2,,49.263403374293304,-123.24587983971097
AD-176,GASG,Gas Gun,Gas Gun Facility,,Gas Gun,,,Current,298.1,1,0,l2,,49.25608738737584,-123.24610216908343
AD-217,PHRM,Pharmaceutical Sciences Building,Pharmacy,,,,PHRM,Current,208.20000000000002,1,1,l1,,49.26258419086455,-123.24277495847262
AD-255,POWR,Power House,Power House,,,,,Current,118.10000000000001,0,0,l2,,49.26514800188863,-123.25460034819183
AD-214,COPP,D.H. Copp Building,Copp,,,COPP,COPP,Current,118.10000000000001,1,1,l2,,49.265487891735226,-123.24745496555656
AD-4,CNTL,Central,Site B,,,,,Current,140,1,1,l3,,49.266292636148336,-123.24700079312774
AD-108,BARN,The Barn,Barn,,<Null>,,,Current,208.20000000000002,1,1,l2,,49.26195702825183,-123.25106421090543
AD-123,BUCH,Buchanan Building,Buchanan,Buchanan A,Faculty of Arts,,BUCH,Current,28.2,1,1,l1,,49.26824189348349,-123.25504037509933
AD-51,VSQU,Village Square,Village Square,Wesbrook Lot E,,,,Current,298.2,1,1,l3,,49.253892558569305,-123.23681835526514
AD-1015,IRSC,Indian Residential School History and Dialogue Centre (IRSC) ,IRSC,,,,,Current,208.20000000000002,1,1,l2,,49.267050378676394,-123.25357779022318
AD-315,EXCH,Exchange Residence,,,,,,Future,298.1,1,1,Residence,,49.26885065520884,-123.24849385780243
AD-523,STMD,St Mark's Duplexes,St Mark's Duplexes,,,,,Current,19.6,0,0,l3,,49.27268946566478,-123.24989956835692
AD-489,NINE,Nine on the Park,Nine on the Park,,,,,Current,28.2,0,0,l3,,49.25910704044197,-123.24698529402154
AD-450,LOGN,Logan Lane,Logan Lane,,,,,Current,298.1,0,0,l3,,49.25932459881397,-123.24558899950766
AD-68,RITS,Ritsumeikan-UBC House,Ritsumeikan,,<Null>,Rits House,RITS,Current,298.1,1,1,l3,,49.260281977757224,-123.25312148191499
AD-100,RESA,Lower Mall Header House,Header,,,LMHH,,Current,298.1,1,1,l2,,49.26058583821253,-123.2549668944449
AD-97,LMRS,Lower Mall Research Station,Lower Mall Research Station,,,LMRS,,Current,298.1,1,0,l2,,49.26074530530228,-123.25580854920702
AD-95,BRIM,The Brimacombe Building,Brimacombe,,,,BRIM,Current,208.20000000000002,1,0,l2,,49.26216838654988,-123.2477805917015
AD-193,GREN,Horticulture Building,Horticulture,Greenhouse,,,GREN,Current,298.1,1,0,l2,,49.26154249487824,-123.25289896371555
AD-134,MINL,Coal and Mineral Processing Lab,Coal Lab,Keevil Institute of Mining Engineering,<Null>,,MINL,Current,298.1,1,0,l2,,49.26120825014645,-123.25229512132209
AD-253,STOR,Stores Road Annex,Stores Annex,,,,,Current,298.1,1,0,l2,,49.26173429026782,-123.25240070934073
AD-225,FORW,Frank Forward Building,Frank Forward,,,,FORW,Current,298.1,1,0,l2,,49.261771798810756,-123.25176071151321
AD-38,GARD,Gardenia House,Gardenia House,Faculty Staff Housing Building D,,,,Current,257.1,1,0,l3,,49.2589217692539,-123.24886795693361
AD-3,SUMA,Sumac House,Sumac House,Faculty Staff Housing Building C,,,,Current,118.10000000000001,1,0,l3,,49.25827244577055,-123.24955380143197
AD-2,CASC,Cascara House,Cascara House,Faculty Staff Housing Building B,,,,Current,118.10000000000001,1,0,l3,,49.25803914252527,-123.24992310728524
AD-112,FARM,UBC Farm Centre,UBC Farm Centre,,,,,Current,152.3,0,0,l2,,49.25069892029999,-123.23784633241307
AD-226,BART,Morris and Helen Belkin Art Gallery,Belkin Art Gallery,,<Null>,,,Current,208.20000000000002,1,1,Attraction,,49.26824810446947,-123.25628889749085
AD-202,CHOI,C. K. Choi Building for the Institute of Asian Research,Choi Building,,<Null>,,CHOI,Current,210,1,1,l2,,49.26723874621751,-123.25782825541458
AD-106,ACEN,Asian Centre,Asian Centre,,,,ACEN,Current,208.20000000000002,1,0,l1,,49.266831074889296,-123.25845925874293
AD-118,MSB,Michael Smith Laboratories,Michael Smith Labs,,,,MSB,Current,210,1,0,l2,,49.26452680804046,-123.24978298398962
AD-162,AERL,Aquatic Ecosystems Research Laboratory (AERL),AERL,,,AERL,AERL,Current,118.10000000000001,1,1,l2,,49.26355756420087,-123.25126790451185
AD-250,LADH,Abdul Ladha Science Student Centre,Ladha,,,,,Current,208.20000000000002,1,1,l2,,49.26606196290142,-123.2512535925949
AD-258,SOWK,Jack Bell Building for the School of Social Work,Jack Bell,,,,SOWK,Current,78.8,1,1,l2,,49.264323934227825,-123.25503627443231
AD-130,DMP,Hugh Dempster Pavilion,Dempster,,,,DMP,Current,28.2,1,0,l2,,49.26117870761214,-123.24811956981544
AD-160,KAIS,Fred Kaiser Building,Fred Kaiser,Faculty of Applied Science,<Null>,,KAIS,Current,28.2,1,0,l1,,49.26213982163996,-123.25017772001898
AD-302,SWNG,West Mall Swing Space Building,Swing Space,,,,SWNG,Current,208.20000000000002,1,1,l2,,49.26289929460854,-123.25431911728084
AD-198,CBH,Djavad Mowafaghian Centre for Brain Health (CBH),Centre for Brain Health,,<Null>,CBH,CBH,Current,298.1,1,1,l1,,49.26441644249029,-123.24473249039065
AD-210,IBLC,Irving K. Barber Learning Centre,IK Barber,Ike Barber,<Null>,,IBLC,Current,208.20000000000002,1,1,l1,,49.26762179792964,-123.2523858374472
AD-94,BRDF,Bioenergy Research and Demonstration Facility (BRDF),Bioenergy Research,,<Null>,BRDF,,Current,208.1,1,0,l1,,49.260309921306934,-123.25418150634589
AD-70,THUR,Thunderbird Residence,Thunderbird Residence,Thunderbird Commonsblock,,,,Current,166.4,1,0,Residence,,49.25932776760984,-123.24919270830044
AD-153,WEDC,Wayne and William White Engineering Design Centre,EDC,,<Null>,EDC,,Current,208.20000000000002,0,0,l2,,49.26231838137894,-123.24797282524203
AD-219,LSC,Life Sciences Centre,Life Sciences ,,<Null>,,LSC,Current,28.2,1,1,l1,,49.26239422841843,-123.24602537267018
AD-152,CHBE,Chemical & Biological Engineering Building,ChemBio,,<Null>,CHBE,CHBE,Current,28.2,1,1,l2,,49.262286203131744,-123.24729654074044
AD-131,ICCS,Institute for Computing Information and Cognitive Systems / Computer Science,ICICS/CS,,<Null>,ICICS,ICCS,Current,28.2,1,0,l2,,49.26109393325619,-123.24931164733302
AD-185,RUGC,Gerald McGavin Rugby Centre,Rugby Centre,,,,,Current,298.1,1,0,l2,,49.25961528700764,-123.24132161963648
AD-78,STMK,St. Mark's College,St Mark's College,,,,,Current,134.3,1,0,l2,,49.27236951553746,-123.24935152667408
AD-268,SRC,Student Recreation Centre (SRC),SRC,,<Null>,REC,SRC,Current,298.1,1,1,Attraction,,49.268291087513276,-123.249384011164
AD-71,CHPL,Chapel of the Epiphany,Chapel of the Epiphany,,,,,Current,118.10000000000001,1,0,l3,,49.27142850638475,-123.25229536333853
AD-167,FSC,Forest Sciences Centre,Forest Sciences,,,,FSC,Current,346.8,1,0,l1,,49.26047360517673,-123.24881367952399
AD-273,NEST,AMS Nest,AMS Nest,,Nest,,,Current,118.10000000000001,1,0,Attraction,,49.26622598566409,-123.24967779220397
AD-283,TRMF,TRIUMF - Canada's National Laboratory For Particle and Nuclear Physics,TRIUMF,,,TRIUMF,,Current,9.5,1,0,l2,,49.24758458469722,-123.23088144411265
AD-247,CACP,Campus & Community Planning,C&CP,,,C&CP1,C&CP1,Current,298.1,1,0,l2,,49.262434795800445,-123.25328561817538
AD-204,DLAM,David Lam Management Research Centre,David Lam,,,,DLAM,Current,208.20000000000002,1,1,l2,,49.26568165386556,-123.2540711060124
AD-263,LPRC,Library Preservation Archives,Library PARC,,,,,Current,113.8,1,0,l2,,49.24494622328792,-123.22983005248733
AD-57,WCOM,Wesbrook Community Centre,Wesbrook Community Centre,,,,,Current,210,1,0,l1,,49.25405284749058,-123.23726719727551
AD-712,ACAP,Acadia Park Residence,Acadia Park Residence,,Student Family Housing,,,Current,208.20000000000002,1,0,Residence,,49.26295075726556,-123.2375422337328
AD-74,ARGE,Argyll House East,Argyll House East,,,,,Current,28.2,1,0,l3,,49.27140871244685,-123.24978017855149
AD-187,HILL,Hillel House - Diamond Foundation Centre for Jewish Campus Life,Hillel House,,,,,Current,118.10000000000001,1,0,l2,,49.268481259062334,-123.25129161844431
AD-124,CHAN,Chan Centre for the Performing Arts,Chan Centre,,,,CHAN,Current,28.2,1,1,Attraction,,49.269389527290215,-123.25560502618822
AD-107,ANSO,Anthropology and Sociology Building,ANSOC,,<Null>,ANSOC,ANSO,Current,118.10000000000001,1,0,l2,,49.270111527462646,-123.25756077212851
AD-215,FRDM,Friedman Building,Friedman,,,,FRDM,Current,298.1,1,1,l2,,49.26557428011829,-123.2459424583431
AD-44,TAMK,Tamarack House,Tamarack House,Faculty Staff Housing Building E,,,,Current,298.1,1,0,l3,,49.25972170926378,-123.24645870936526
AD-155,CEME,Civil and Mechanical Engineering Building,CEME,,,CEME,CEME,Current,298.1,1,0,l2,,49.26268673129515,-123.24923482320487
AD-213,DNRG,Campus Energy Centre (CEC),Energy Centre,,,,,Current,298.1,1,0,l1,,49.2618038618894,-123.24528267068561
AD-270,MSUB,Main Substation,Substation,,,,,Current,118.10000000000001,1,0,l2,,49.26122339916301,-123.24425529184302
AD-238,TECH,Technology Enterprise Facility (TEF) 3 ,TEF3,,,TEF3,,Current,298.1,1,0,l2,,49.261431180853634,-123.24624267912844
AD-224,PART,Thunderbird Parkade,Thunderbird Parkade,,,,,Current,118.10000000000001,1,0,Parkade,,49.261143205081744,-123.24343137217541
AD-199,PARH,Health Sciences Parkade,Health Sciences Parkade,,,,,Current,118.10000000000001,1,0,Parkade,,49.26307272162234,-123.2472935699413
AD-23,VIST,Vista Point,Vista Point,,,,,Current,298.1,1,0,l3,,49.26179739774578,-123.24039913071196
AD-191,ACAH,Acadia House,Acadia House,,,,,Current,118.10000000000001,1,0,l3,,49.262923641148014,-123.23585132782763
AD-146,CCSB,Child Care Services,Child Care Services,Child Care Services Building 4,CCS4,,,Current,54.9,1,0,l2,,49.26012594814137,-123.23475254259175
AD-14,STRA,The Stratford,The Stratford,Hampton Place Lot 7-1 ,,,,Current,69,1,0,l3,,49.25951019147645,-123.23353126920938
AD-16,BALM,The Balmoral,Balmoral,Hampton Place Lot 9,,,,Current,349.3,1,0,l3,,49.258451166486374,-123.23297140576689
AD-13,WYND,Wyndham Hall,Wyndham Hall,Hampton Place Lot 7-2 ,,,,Current,180.20000000000002,1,0,l3,,49.259363674386286,-123.23399775371746
AD-7,SAND,Sandringham,Sandringham,Hampton Place Lot 1,,,,Current,137.9,1,0,l3,,49.25828203537631,-123.23350266361821
AD-12,BRIS,The Bristol,The Bristol,Hampton Place Lot 6 ,,,,Current,118.10000000000001,1,0,l3,,49.25852739703644,-123.23470403480994
AD-11,CHAT,The Chatham,The Chatham,Hampton Place Lot 5 ,,,,Current,71.10000000000001,1,0,l3,,49.25855794408954,-123.23613515946488
AD-9,THAC,Thames Court,Thames Court,Hampton Place Lot 3,,,,Current,118.10000000000001,1,0,l3,,49.257486649677226,-123.23659910468486
AD-10,STJA,St. James,St. James,Hampton Place Lot 4,,,,Current,118.10000000000001,1,0,l3,,49.257983266010925,-123.23701827162417
AD-286,PSAB,Public Safety Building,Public Safety Building,Police and Fire Department,<Null>,RCMP,,Current,118.10000000000001,1,0,l2,,49.25869970590489,-123.23824239915558
AD-308,BTF,UBC Baseball Indoor Training Centre,Baseball Training Centre,,,,,Current,298.1,1,1,l2,,49.25640299406397,-123.23978720767171
AD-233,LAUR,The Laureates,Laureates,Laureates 1,,,,Current,266.1,1,0,l3,,49.25420611149435,-123.23091435477532
AD-45,LGCY,Legacy,Legacy,,,,,Current,118.10000000000001,1,0,l3,,49.25733634939004,-123.24776546560307
AD-1,AZAL,Azalea House,Azalea House,Faculty Staff Housing Building A ,,,,Current,28.1,1,0,l3,,49.257825369500324,-123.24982647533427
AD-56,YUYU,Yu,Yu,,,,,Current,118.10000000000001,1,0,l3,,49.25350543232875,-123.23583301288453
AD-58,PACC,Pacific,Pacific,,,,,Current,298.1,1,0,l3,,49.2534273984946,-123.23516587208591
AD-59,SAIL,Sail,Sail,Sail 1,,,,Current,222.9,1,0,l3,,49.252382486353866,-123.23486647860129
AD-62,PROD,Prodigy,Prodigy,Prodigy 1,,,,Current,261.1,1,0,l3,,49.25170476947639,-123.23590218227356
AD-65,DAHL,Dahlia House,Dahlia House,,,,,Current,201.70000000000002,1,0,l3,,49.252064644302685,-123.23368206167143
AD-33,ACDY,Academy,Academy,,,,,Current,298.1,1,0,l3,,49.25570561078401,-123.2331443722425
AD-276,SAGE,Sage,Sage,,,,,Current,298.1,1,0,l3,,49.255394863563,-123.2337826688694
AD-32,WSBT,The Wesbrook,The Wesbrook,Wesbrook Lot 1,,,,Current,298.1,1,0,l3,,49.255177994853646,-123.2346678879869
AD-28,KEEN,Keenleyside,Keenleyside,,,,,Current,298.1,1,0,l3,,49.254019934650756,-123.23314795310931
AD-29,PATH,Pathways,Pathways,Pathways II East,,,,Current,2.8000000000000003,1,0,l3,,49.254535263394814,-123.23310820014304
AD-113,BOTR,UBC Botanical Garden Nursery,Nursery,,,,,Current,61.300000000000004,1,0,l2,,49.249491683091144,-123.23492940825979
AD-20,SITK,Sitka,Sitka,,,,,Current,298.1,1,1,l3,,49.26301619252544,-123.24190046355837
AD-26,SPRT,Spirit,Spirit,,,,,Current,23.8,1,0,l3,,49.25292371102128,-123.23377787258423
AD-34,MAGN,Magnolia House,Magnolia House,,,,,Current,200.5,1,0,l3,,49.25170314243598,-123.23347677615875
AD-418,HAWT,Hawthorn Green,Hawthorn Green,,,,,Current,298.1,1,0,l3,,49.258313006287516,-123.24837864354335
AD-66,NOBL,Nobel House,Nobel House,,,,,Current,196.70000000000002,1,0,l3,,49.25087429375747,-123.23300979785549
AD-231,RESP,UBC Research Ponds,Research Ponds,,,,,Current,242.1,1,0,l2,,49.24720777673466,-123.23268299184167
AD-515,SOMS,Somerset,Somerset,,,,,Current,28.2,1,0,l3,,49.256063131394804,-123.24837516530852
AD-22,GRWC,Greenwood Commons ,Greenwood Commons ,,,,,Current,104.9,1,0,l3,,49.26081048337912,-123.23974992854151
AD-266,SPPA,Spirit Park Apartments,Spirit Park Apartments,,,,,Current,199.1,1,0,l3,,49.26150038952868,-123.23934695804874
AD-244,STJN,St. John Hospice,Hospice,,,,,Current,118.10000000000001,1,0,l2,,49.25531907118087,-123.24722943145623
AD-186,STAC,UBC Stadium Academic Centre,Stadium Centre,,,,,Current,231.4,1,0,l2,,49.255265771960666,-123.24493569560227
AD-288,BERW,Berwick Memorial Centre,Berwick,,,,,Current,198.1,1,0,l3,,49.26090644626648,-123.23882389606761
AD-245,SCWH,South Campus Warehouse,SC Warehouse,,,,,Current,332.3,1,0,l2,,49.24634686064395,-123.23216814704767
AD-166,UCLL,Leon and Thea Koerner University Centre,University Centre,,<Null>,<Null>,UCLL,Current,28.2,0,0,Attraction,,49.2687187294653,-123.25705091359073
AD-212,MATX,Mathematics Annex,Math Annex,,,,MATX,Current,298.1,0,0,l2,,49.26616378751166,-123.25490703763597
AD-111,BIOL,Biological Sciences Building,BioSciences,BioSciences West wing,<Null>,,BIOL,Current,298.1,1,1,l2,,49.26455848625092,-123.25202613046334
AD-109,PARF,Fraser River Parkade,Fraser River Parkade,,,,,Current,298.1,1,0,Parkade,,49.266280269011006,-123.25836766077417
AD-19,VANR,Place Vanier Residence  ,Place Vanier Residence  ,Gordon Shrum Commons Block,<Null>,,,Current,298.1,1,1,Residence,,49.264880046436005,-123.25882166894597
AD-301,PARW,West Parkade,West Parkade,,,,PARW,Current,298.1,1,0,Parkade,,49.26289436300065,-123.25561351859653
AD-218,PARR,Rose Garden Parkade,Rose Garden Parkade,,,,,Current,298.1,1,0,Parkade,,49.26960821028767,-123.2564244501538
AD-1034,RESN,The Residence at Nobel Park,,Wesbrook Lots 7+8,,,,Future,280.7,1,0,l3,,49.25084517668403,-123.23529881131054
AD-313,ETON,Eton,Eton,Wesbrook Lot 15,,,,Future,189.70000000000002,1,0,l3,,49.25345478794616,-123.23036085876645
AD-307,NSDC,National Soccer Development Centre,Soccer,,,,,Current,118.10000000000001,1,1,l2,,49.25730733564594,-123.23973940413943
AD-0,BRKC,Brock Commons,Tallwood House,Brock Commons I,,,,Current,298.1,1,1,Residence,,49.2695407354611,-123.25146645821889
AD-241,CUNN,George Cunningham Building ,Cunningham,,,,CUNN,Current,298.1,0,0,l2,,49.264778003260034,-123.2490882839974
AD-77,FOLI,Folio,Folio,,,,,Current,118.10000000000001,1,0,l3,,49.27182423393179,-123.24961921324231
AD-322,CHAH,Chancellor Hall,Chancellor Hall,,,,,Current,118.10000000000001,1,0,l3,,49.271662416284876,-123.25029667585713
AD-281,IONA,Iona Building,Iona Building,,,,,Current,298.1,0,0,l2,,49.27106787471884,-123.25038881855356
AD-81,WSPT,Westpoint,Westpoint,,,,,Current,118.10000000000001,1,0,l3,,49.27009082958773,-123.25060678881957
AD-271,LIFE,UBC Life Building (Old SUB),Old SUB,,<Null>,SUB,,Current,298.1,1,1,l1,,49.26763755083428,-123.25046590078415
AD-84,PNCW,Ponderosa Commons West,Ponderosa Commons,Maple/Arbutus House,<Null>,,,Current,298.1,1,0,Residence,,49.26344601736438,-123.25591496107458
AD-105,AUDX,Auditorium Annexes,Auditorium Annexes,Auditorium Annex Offices A,,,AUDX,Current,298.1,1,0,l2,,49.26671995786526,-123.25687044176809
