SERVICE_ID,BL_ID,NAME,SERVICE_TYPE,BL_NAME,PHOTOURL,URL,HTML,CONTACT,HOURS,MANAGE,STATUS,ADD_ID,GLOBALID,LAT,LONG
,215,Rain or Shine,cafe,,,,,,,Non-UBC,UC,AD-1025,{808656A8-A6B6-4EAD-B14C-B05E54C24209},49.266421957793014,-123.24687528321165
,215,Nori,cafe,,,,,,,Non-UBC,UC,AD-1030,{58FBF514-F13C-4705-844C-8EDD15311754},49.266212792957894,-123.24747618337076
,215,Bao Down ,cafe,,,,,,,Non-UBC,UC,AD-1031,{F95181CE-1EF7-460E-AFE3-240186464850},49.266199276039927,-123.24758190553602
,215,JJ Bean,cafe,,,,,,,Non-UBC,UC,AD-1026,{B2EDD0F2-6557-4A90-9D05-3C77D77941AE},49.266293183329303,-123.24687271637802
,215,Jamjar,cafe,,,,,,,Non-UBC,UC,AD-1027,{0F4193F9-E358-4B64-8CB4-27D35577A62E},49.266255384142269,-123.24714303810352
,215,Joe's Pizza,cafe,,,,,,,Non-UBC,UC,AD-1029,{D253B3C4-6E1F-4552-9F2C-03AFD2176344},49.266228199854218,-123.24735567096148
,215,Tacomio,cafe,,,,,,,Non-UBC,UC,AD-1028,{7B4DCB48-F399-4E53-B552-F6931961DA81},49.266242474966937,-123.24724401446197
194,081,Corner Store,minimart,,,http://shop.bookstore.ubc.ca/c-471-corner-store.aspx,,,,SHHS,Current,AD-116,{9AB5D224-316B-4F19-96D7-86A3A98601B1},49.265212701503515,-123.25078486707461
226,313,Starbucks,cafe,,,http://www.food.ubc.ca/place/starbucks/,,,,SHHS,Current,AD-160,{1CDFC81E-DC77-47C0-8D96-91FA0D3C41BC},49.262346334708916,-123.25024129774491
,313,Engineering,department,,,,,,,UBC,Current,AD-160,{F83710CF-B7E2-4FB2-B2D1-FFC80E90C1CB},49.262465234777657,-123.25014724457887
,313,"Applied Science, Faculty of",faculty/school,,,,,,,UBC,Current,AD-160,{D473313D-F6C3-4565-A3F5-03BA11BE0EF7},49.262343995161785,-123.25007589541393
202,081,Starbucks,cafe,,,http://www.food.ubc.ca/place/starbucks/,,,,SHHS,Current,AD-116,{641CB5C9-2DA2-4081-B63D-23D4A2FA4E7C},49.26519143469509,-123.2508475866706
,490,Robert H. Lee Graduate School ,department,,,,,,,UBC,Current,AD-204,{0E95696D-B878-4F06-AEC8-3753ED7F5908},49.265618875120097,-123.25414729494055
,081,Building Access (Key Desk),campus_services,,,,,,,UBC,Current,AD-117,{B475663A-E4BF-479A-BA58-F54772221C70},49.265047054315076,-123.25062126434041
,081,UBC Parking Services,campus_services,,,,,,,Parking,Current,AD-117,{260EA451-BCAE-4817-B252-BC9BF3767F75},49.264877982469827,-123.2506990293992
,081,UBC Carding Office,campus_services,,,,,,,UBC,Current,AD-117,{BB84A469-E2CA-4451-9C31-652D49BE018E},49.265268758608883,-123.25049675287454
5,490,David Lam Management Research Library,libraries,,,http://lam.library.ubc.ca/,,,,Library,Current,AD-205,{AD3EB4B4-10DE-4C0D-8FDA-21D4333D150D},49.265777822013007,-123.25461117198222
,686,Village Gate Homes (Rental Housing) ,campus_services,,,,,,,UBCPT,Current,AD-335,{F60F07BB-ABB2-4BB9-BD11-D6E484BB6CE2},49.255070817446587,-123.23605138815321
,472,Go Global International Learning Programs,campus_services,,,,,,,UBC,Current,AD-200,{730D385C-ACCB-43A1-AD56-8F452561823A},49.267803119437524,-123.25896846500379
,472,International Student Development,campus_services,,,,,,,UBC,Current,AD-200,{F8B07E19-3290-43EA-8135-F19D597CA0CE},49.267803119437524,-123.25896846500379
,430,Robert F. Osborne Centre/Gymnasium,attractions,,,,,,,Athletics,Current,AD-183,{336B3394-B0FB-42A9-90E2-9C4BD2928536},49.260258445980675,-123.24375905463943
,606,Finance,campus_services,,,,,,,UBC,Current,AD-238,{3588BE55-279F-48C7-B4ED-586AD3A80CAE},49.261064863335157,-123.24626157412062
,606,Human Resources,campus_services,,,,,,,UBC,Current,AD-238,{2586A691-0E50-470E-9F49-B0A4A2980E36},49.261185255561827,-123.24637877422278
134,081,Farmer's Market,farmers market,,,,,,,UBC,Current,AD-116,{92F80B08-5640-4CF4-8690-E338B5592F02},49.265437866778662,-123.25042374114567
133,635,St. John Hospice,medical,,,,,,,UBC,Current,AD-244,{C2A027D5-7E9B-4580-8723-8FE259379A9C},49.255456629378315,-123.24746198943237
132,643,Campus and Community Planning,campus_services,,,,,,,UBC,Current,AD-247,{80C25B3D-2264-4FFD-905B-5250F846D6F0},49.262369644118976,-123.25319542727941
101,199,Nobel Biocare Oral Health Centre,commercial_services,,,http://www.dentistry.ubc.ca/treatment/about/,,,,UBC,Current,AD-137,{7E82E9EC-982B-4A52-B308-68A24AE0BF66},49.265893808123607,-123.24555503328308
257,797,UBC Welcome Centre,campus_services,,,<Null>,,,,UBC,Current,AD-274,{2B0A5B38-67B3-45DE-AD02-78571591EF7B},49.265968433661847,-123.24975778644438
39,081,Campus Security (Lost and Found),campus_services,,,http://www.security.ubc.ca/,,,,UBC,Current,AD-117,{5DA1F1DE-2469-432E-ACAD-C97F8E0BF406},49.264875175477606,-123.25068059689191
59,670,UBC Farm,farmers market,,,http://ubcfarm.ubc.ca,,,,UBC,Current,AD-112,{6BD875C7-C113-42EE-9042-AE67FBB28F07},49.250767623412806,-123.23799605539089
77,627,Old Barn Community Centre,community_centre,,,http://www.myuna.ca/oldbarn/,,,,UNA,Current,AD-43,{3B3ECDFD-7E33-4DDD-A853-B56B265B39EF},49.259013798370667,-123.24827430376074
42,686,University Neighbourhoods Association,campus_services,,,http://www.myuna.ca/,,,,UNA,Current,AD-335,{DFAAB8E6-2D80-4C6B-964F-2E7937BE0063},49.255026794220285,-123.23615907277755
76,697,Wesbrook Community Centre,community_centre,,,http://planning.ubc.ca/vancouver/projects-consultations/under-construction/neighbourhood-lands/wesbrook-community-centre,,,,UNA,Current,AD-57,{C47BA330-F7D1-42DD-B4E9-6668856B5F54},49.253920273225049,-123.23729822879899
9,515-1,Walter C. Koerner Library,libraries,,,http://www.library.ubc.ca/koerner,,,,Library,Current,AD-209,{7BD51A78-752B-4154-8840-97BAC2076CB4},49.266654508232762,-123.25513141498396
258,462,Purdy Pavilion,medical,,,,,,,VCH,Current,AD-196,{FB31492F-99ED-4F65-ADE9-368578A2A2C0},49.263264894819415,-123.24594192849133
259,537,Detwiller Pavilion,medical,,,,,,,VCH,Current,AD-221,{259915C2-8703-4701-8E15-10B636B2C7F7},49.263549136847267,-123.24439232252135
218,232,Neville's,cafe,,,,,,,SHHS,Current,AD-151,{E2ADFD64-7395-40A8-986A-DBFE7979B6F3},49.264172211192673,-123.25309104517963
,515-1,Government Publications and Maps,libraries,,,,,,,Library,Current,AD-209,{42B546ED-C82A-49C7-A85F-DC3E6564C5B6},49.266664685528504,-123.25513625226343
8,234,Education Library,libraries,,,http://education.library.ubc.ca/,,,,Library,Current,AD-151,{6DFCC07F-EC7D-4E86-BDD8-DABC965FF7F5},49.26379568695608,-123.25335649633651
,515-1,Data/GIS Lab,libraries,,,,,,,Library,Current,AD-209,{E4A2465A-2B67-4065-9163-91F1FF3C0C44},49.266625281477197,-123.25510756571146
,028,"Architecture & Landscape Architecture, School of (SALA)",faculty/school,,,,,,,UBC,Current,AD-101,{0AC43AAF-5558-44B5-ACC7-7527B30A1824},49.267604410364306,-123.25594782755218
,198,Dental Speciality Clinics,campus_services,,,,,,,UBC,Current,AD-135,{6B90AC3B-6E0A-4A97-8D10-873DF8A38353},49.265606791743238,-123.24546394085863
,028,"Community and Regional Planning, School of (SCARP)",faculty/school,,,,,,,UBC,Current,AD-101,{8B448E43-660F-42C9-8FC6-456AFD1DBF1F},49.26756076709124,-123.25606164192625
,525-2,"Audiology & Speech Sciences, School of",faculty/school,,,,,,,UBC,Current,AD-215,{38139B47-0397-4FF6-B2DF-869D20428ACD},49.265385199678718,-123.24624365442543
,428,"Kinesiology, School of",faculty/school,,,,,,,UBC,Current,AD-182,{CC1D200A-1D6C-48EC-B5AD-3DFDFD35A603},49.266701668545998,-123.24784914791249
37,463,UBC Hospital,hospital,,,http://www.vch.ca/locations-and-services/find-locations/?site_id=164,,,,VCH,Current,AD-197,{EF2FB1EF-4347-4595-B45F-F217AA8F1EC1},49.264183725047211,-123.24602073889491
,212,"Journalism, School of",faculty/school,,,,,,,UBC,Current,AD-148,{497221EB-E78D-4A92-B9E6-0EF6E2522B89},49.267812165662392,-123.25777345738835
,463,Student Health Services,campus_services,,,,,,,UBC,Current,AD-197,{E0D7D0BE-BAA5-4EEF-9616-7E8F478D0A3C},49.263984427898777,-123.24571768539417
187,409,Koerner's Pub,restaurant,,,http://koerners.ca/,,,,Non-UBC,Current,AD-179,{1F611EC5-2D0C-4B48-ACAC-3695B107C180},49.268314469038486,-123.25807444791813
189,409,Seedlings,restaurant,,,http://www.ubcsprouts.ca/initiatives/seedlings/,,,,Non-UBC,Current,AD-179,{8D2CC77B-A071-44AB-894F-AC4766F4160F},49.268322479233269,-123.25783231357411
,409,Graduate Student Services,campus_services,,,,,,,UBC,Current,AD-179,{030E1D9D-3FFB-4AEA-8BB3-F078586BB055},49.268370327722515,-123.25783622346235
,409,Graduate Student Centre/Society,campus_services,,,,,,,UBC,Current,AD-179,{CE6F7204-83B9-4B5B-BCA3-D174128AD054},49.268370327722515,-123.25783622346235
,516,"Library, Archival & Information Studies, School of (iSchool@UBC)",faculty/school,,,,,,,UBC,Current,AD-210,{DA851BDA-0F70-4AEA-BCD8-17ADBFC5C9E1},49.267529430639065,-123.25268626165266
,199,Continuing Studies,faculty/school,,,,,,,Non-UBC,Current,AD-136,{D7829E35-9DA7-4BE8-9C90-D27AB6B3DB60},49.265919183755003,-123.24624559420374
,641,Building Operations ,campus_services,,,,,,,UBC,Current,AD-68,{A30EA944-14C8-4439-AF7E-094D9DF64A22},49.261289362590404,-123.25371853714246
,641,Campus Mail,campus_services,,,,,,,UBC,Current,AD-68,{75A3ABFB-6172-4142-8422-E2D0B6AD6DFE},49.260698567888312,-123.25336122822625
,160,English Language Institute (ELI),department,,,,,,,UBC,Current,AD-129,{75139D70-6F8E-44EB-AD00-AD7F9BF0084F},49.263365025023134,-123.25495364551728
,516,"Centre for Teaching, Learning and Technology (CTLT)",department,,,,,,,UBC,Current,AD-210,{264046C9-E429-4B0C-8631-C476AFF75D8A},49.267542524451336,-123.25263302120061
,121-1,Arts Academic Advising,campus_services,,,,,,,UBC,Current,AD-123,{D11E61A5-438A-4F87-9FEF-8A4C1F78DE21},49.269299856577902,-123.25421271282114
,473,College of Health Disciplines,department,,,,,,,UBC,Current,AD-220,{E4AF6FBB-07AF-4231-92B7-4EF584FA1381},49.264768752493708,-123.24692636277982
,198,Dentistry - Student Advising,campus_services,,,,,,,UBC,Current,AD-135,{4FF465B6-DEE6-4DF5-8120-4E455595EA61},49.265511560842171,-123.24545099472516
,521,UBC Energy and Water Services,campus_services,,,,,,,UBC,Current,AD-213,{9F8D05B1-3C6F-4E19-A845-E15590EBF448},49.261649500531128,-123.24510370660154
,868,PROTRANS BC Community Arena,athletics,,,,,,,Athletics,Current,AD-295,{3514169B-D15D-4148-9D4B-EB79AC43697F},49.260412398857859,-123.24194683780732
,112-1,Access and Diversity,campus_services,,,,,,,UBC,Current,AD-121,{865648BF-BF4D-4C3D-BDDA-C83B2ED664BE},49.268631835402893,-123.25219735195135
,112-1,Admissions (Undergraduate) ,campus_services,,,https://www.grad.ubc.ca,,,,UBC,Current,AD-121,{F90F38F9-CDF0-49A3-A0E0-556FCCDBA712},49.268631835402893,-123.25219735195135
,112-1,"Awards, Fees and Financial Assistance ",campus_services,,,,,,,UBC,Current,AD-121,{2380F4B6-BFBF-4E6C-955F-4CF2C9926D26},49.268631835402893,-123.25219735195135
,868,Father David Bauer Arena,athletics,,,,,,,Athletics,Current,AD-295,{D256DC88-C12A-4480-A312-B0ADC3F23A68},49.260412398857859,-123.24194683780732
,112-1,Career Services,campus_services,,,,,,,UBC,Current,AD-121,{A8E06D10-349A-437C-AE3C-003A84F17D8A},49.268631835402893,-123.25219735195135
,112-1,Crane Library,campus_services,,,,,,,UBC,Current,AD-121,{B3949414-32CD-40A4-8405-8EF32302874A},49.269034281522579,-123.25255870006055
,112-1,Enrolment Services,campus_services,,,,,,,UBC,Current,AD-121,{D1FFCD98-3222-41B9-9FC7-83EFD8E4B087},49.268631835402893,-123.25219735195135
,112-1,Equity and Inclusion Office,campus_services,,,,,,,UBC,Current,AD-121,{0A927AD8-0D8D-4C22-AAD2-11138A80342D},49.268631835402893,-123.25219735195135
,112-1,Undergraduate Student Services,campus_services,,,,,,,UBC,Current,AD-121,{22FE8B8F-5293-4292-B0B9-551D654B2404},49.268631835402893,-123.25219735195135
,377-6,Student Housing and Hopitality Services,campus_services,,,,,,,SHHS,Current,AD-172,{F5414E03-3FA5-45D3-9A97-C33197638BD7},49.261170915427911,-123.25558687643957
,377-6,UBC Food Services Administration,campus_services,,,,,,,SHHS,Current,AD-172,{96492DB4-3F77-407F-B3DA-F4324094D9A4},49.26114688129028,-123.25554368288763
232,353,Tim Hortons,cafe,,,http://www.food.ubc.ca/place/tim-hortons/,,,,SHHS,Current,AD-167,{A6251A5C-3757-4CF7-BAA6-6612FE473B65},49.260179003947677,-123.24848707373744
252,81,Harvest,minimart,,,,,,,SHHS,Current,AD-87,{4E5875CF-2451-4611-9D4D-93BDAF851304},49.263982724031187,-123.25574155237652
,865-2,UBC Press,campus_services,,,,,,,UBC,Current,AD-293,{26EDCC85-0D10-4947-9403-BD993496C868},49.264838323341749,-123.25596596945608
20,155,Chuva,child_care,,,,,,,SHHS,Current,AD-128,{2F926306-4E3F-4D57-9FE0-29B28F3771E7},49.261076714470711,-123.23427815050775
20,155,Pioggia,child_care,,,,,,,SHHS,Current,AD-128,{926DE8F5-8A78-4B32-80EB-0459839617D3},49.26095642176643,-123.2343276542246
20,155,Chuva,child_care,,,,,,,SHHS,Current,AD-128,{C040F48F-AB4D-4229-B06A-3DCC1DD3AD59},49.260766806970736,-123.23416619397298
,872-2,West Coast Suites,campus_services,,,,,,,SHHS,Current,AD-1013,{17B15E57-4905-48DE-9FEF-96B5D204E638},49.269554302801858,-123.24855733527939
14,081,UBC Bookstore,retail,,,http://www.bookstore.ubc.ca/home,,,,UBC,Current,AD-116,{A6AFE9E3-DA71-415E-8E79-5C65B9839FBF},49.265301254187698,-123.25053682492073
,865-2,Ceremonies and Events ,campus_services,,,,,,,UBC,Current,AD-293,{88960B2D-8E51-4D90-A7EE-809C0300F0CF},49.264806008358349,-123.25594511337147
,633,Campus Sustainability Office,campus_services,,,,,,,UBC,Current,AD-243,{9D11E681-A44F-4846-8A18-EE0DE08679EC},49.262048569772723,-123.25310958074033
122,689,A Perfect 10 Nail Spa,commercial_services,,,,,,,Non-UBC,Current,AD-352,{F0A4E2D6-61DA-48E5-A3CE-0D160B76E35E},49.254514516578993,-123.23547522632566
123,690,Hot Box Yoga,commercial_services,,,http://www.thehotboxyoga.com/,,,,Non-UBC,Current,AD-277,{F509A66D-7375-43D8-9C35-6E56C1F45092},49.254433295264597,-123.23636452199925
124,593-1,Insure BC,commercial_services,,,http://www.insurebc.ca/,,,,Non-UBC,Current,AD-359,{FE986EC1-A152-4132-A4F5-204DD0E33304},49.254845223054339,-123.23536374234783
129,686,Xerox Canada,commercial_services,,,,,,,Non-UBC,Current,AD-335,{4B64CD46-F9CB-4CDC-B162-FA1A10196222},49.255106026613518,-123.23615128648751
125,593-1,éliane Hair & Spa,commercial_services,,,http://www.elianehairspa.ca/,,,,Non-UBC,Current,AD-235,{65BFE2A5-8DC8-4C7E-969C-D003818037FF},49.254519602412138,-123.23488267003451
130,689,University Barbershop,commercial_services,,,http://www.theuniversitybarbershop.com/,,,,Non-UBC,Current,AD-343,{949E08A9-20F8-4089-8FA2-AD99511280A5},49.254647086638037,-123.23558368744681
131,689,Careville Health Clinic,medical,,,http://www.carevillehealth.com/,,,,Non-UBC,Current,AD-341,{D0F444FF-3356-4489-B983-BA3B54950B7B},49.254775642748037,-123.23567547726135
135,687,Save-On-Foods,grocery,,,http://www.saveonfoods.com/store/ubc,,,,Non-UBC,Current,AD-46,{6BAC274F-E9EB-499D-95EA-A01CFBACAB0F},49.254765856646394,-123.23655411256411
136,795,Grocery Checkout,grocery,,,http://www.facebook.com/GCIVancouver,,,,Non-UBC,Current,AD-273,{B6D4F394-A88B-4804-B3C5-70E716D5E07D},49.26633848072683,-123.24956618915373
137,689,Wesbrook Cleaners,commercial_services,,,,,,,Non-UBC,Current,AD-345,{90EA0B2F-EE1F-4833-A92C-0C064DFA768B},49.254549653680598,-123.23550438384349
126,689,Kabro Salon,commercial_services,,,http://www.kabrosalon.com/,,,,Non-UBC,Current,AD-342,{83F1DE48-A5E2-4262-8AD7-6BBD33B4C1D6},49.254698908261005,-123.2356264207092
127,593-1,Wesbrook Village Dental Ctr,commercial_services,,,http://www.wesbrookvillagedental.com/,,,,Non-UBC,Current,AD-360,{14A428CD-6811-44A2-AF8E-1FA3D84DF3A6},49.254760355920531,-123.23529389273753
128,689,Wesbrook Eyecare,retail,,,http://wesbrookeyecare.com/,,,,Non-UBC,Current,AD-346,{D247F068-3F9F-4358-9660-61F14DF96E47},49.254475505661951,-123.23544320580997
138,690,BC Liqour Store,retail,,,http://www.bcliquorstores.com/store/192,,,,Non-UBC,Current,AD-277,{CB3B5609-3F32-47AD-BC81-FB45EE8AA4AD},49.254529230713608,-123.23622753006214
139,689,Fido,retail,,,,,,,Non-UBC,Current,AD-356,{DA724394-1056-49CA-85EA-453600AD3F36},49.25482988511974,-123.23586842448522
167,689,BierCraft,restaurant,,,http://biercraft.com/wesbrook-at-ubc/,,,,Non-UBC,Current,AD-347,{1AC5ADE1-A030-437E-9581-BE1E84FA3427},49.254270039955095,-123.23548791950692
172,690,Chef Hung Taiwanese Beef Noodle,restaurant,,,http://www.chefhungnoodle.com/eng/,,,,Non-UBC,Current,AD-50,{DAFF28AF-A336-408F-9C9A-F4D57C40A329},49.254322212337122,-123.23628489644693
195,199,Mahony and Sons,restaurant,,,http://mahonyandsons.com/,,,,Non-UBC,Current,AD-327,{36D17B2F-BD01-4A46-84F4-22E813017C61},49.26596509870334,-123.24671584982869
263,,MoA Parking Lot,parking,,,,,,,Parking,Current,AD-218,{91372ECA-044F-4B5E-9144-FF16D7099A71},49.269219395625903,-123.25835800965653
263,,Cecil Green Parking Lot,parking,,,,,,,Parking,Current,AD-218,{B9148EB7-470F-4DB9-ADBA-40221FE48A00},49.270835551493477,-123.25776493722383
100,,Norma Rose Point School,school,,,,,,,VSB,UEL,,{11F844F5-00AB-4263-8F85-3761AE3C1E67},49.262026690412455,-123.23222945293747
269,,Wesbrook Village Parking,parking,,,,,,,Parking,Current,,{C4F7AE82-7DCB-42EB-8B82-74D0B07C49DF},49.254340258499518,-123.23676605645994
269,,B4 Parking Lot,parking,,,,,,,Parking,Current,,{824A9360-4BB4-4C91-9849-23D8B38630C0},49.259919718433437,-123.24976281889883
269,,C2 Lot - TEF3 Parking Lot,parking,,,,,,,Parking,Current,,{58CA618F-7940-4052-B195-B6D099BBA8C7},49.261285546965503,-123.24581536299513
269,,Hospital Parking,parking,,,,,,,Parking,Current,,{EFF5503D-6B3B-428E-A188-8FD7A1BF8FD7},49.26481705995942,-123.24505318599428
262,,Chinook,child_care,,,,,,,SHHS,UEL,,{80E74D47-3D86-4F27-9718-55EE10811150},49.26184739521139,-123.2333103281444
99,590,University Hill Secondary School,school,,,,,,,VSB,Current,AD-31,{31C74E25-0934-40B8-B97F-F50BAE24C022},49.254122940379105,-123.23909834034674
,836,Vancouver School of Economics,faculty/school,,,,,,,UBC,Current,AD-281,{9D328FBB-1069-48E3-9136-303008F98290},49.270994525243474,-123.2503742332519
200,490,Bento Sushi,cafe,,,http://www.food.ubc.ca/place/bento-sushi/,,,,SHHS,Current,AD-204,{879B32CD-2FC6-40EC-AD69-313C4D1B8B7E},49.265779639919892,-123.2542827800202
222,490,Pizza Pizza,cafe,,,,,,,SHHS,Current,AD-204,{42E56EB7-6C0A-4C16-9528-6BE0F9D28104},49.265779639919892,-123.2542827800202
235,490,Triple O's,cafe,,,http://www.food.ubc.ca/place/triple-o/,,,,SHHS,Current,AD-1014,{2199A000-5952-4A9C-8FF9-856840AE3380},49.265862413327199,-123.25428098414173
225,23,Sauder Exchange Cafe,cafe,,,http://www.food.ubc.ca/place/sauder-exchange-cafe/,,,,SHHS,Current,AD-98,{FC9DC745-1D37-4095-BB4C-711FEE8C431A},49.265218212213753,-123.25372814114829
223,490,Qoola,cafe,,,http://www.food.ubc.ca/place/qoola/,,,,SHHS,Current,AD-204,{EE2653BD-5B43-4207-9AF1-678D1C716C73},49.265779639919892,-123.2542827800202
,23,"Business, Sauder School of",faculty/school,,,,,,,UBC,Current,AD-98,{C98C434B-C60D-45FD-86EE-4D54F3E4DFCB},49.264917035904467,-123.25357505274017
231,490,Tim Hortons,cafe,,,http://www.food.ubc.ca/place/tim-hortons/,,,,SHHS,Current,AD-204,{4C926368-F5E6-45C3-864D-84A6EA517305},49.265779639919892,-123.2542827800202
,409,Graduate and Postdoctoral Studies,faculty/school,,,,,,,UBC,Current,AD-179,{584C7DFB-09A1-4349-8EB3-491277516DB4},49.268419339746778,-123.2578774143837
,575,"Music, School of",faculty/school,,,,,,,UBC,Current,AD-229,{257A5287-3493-45CE-8105-0C6632E3B02C},49.267446514244433,-123.25671234828653
,353,"Forestry, Faculty of",faculty/school,,,,,,,UBC,Current,AD-167,{0E8A2B5F-2C67-4C4F-85C1-10F6BC72E4BB},49.260473605176728,-123.24881367952399
,232,"Education, Faculty of",faculty/school,,,,,,,UBC,Current,AD-151,{1424F265-39DD-47E6-99F6-993AA6AC2488},49.263919584629612,-123.25255271788787
,473,"Dentistry, Faculty of",faculty/school,,,,,,,UBC,Current,AD-220,{3D43820B-442E-4E61-8346-C53A6F788B01},49.264799076813162,-123.24672946485801
,482,"Law, Peter A. Allard School of",faculty/school,,,,,,,UBC,Current,AD-203,{60697E0C-E69B-4BCF-A893-6EB50845A560},49.269947770367352,-123.25351517069106
,225,"Science, Faculty of",faculty/school,,,,,,,UBC,Current,AD-178,{73749C3B-203C-4A5A-9A7B-D0B4AC1BC867},49.262999865466718,-123.25202236287618
207,790,"Pharmaceutical Sciences, Faculty of",faculty/school,,,<Null>,,,,UBC,Current,AD-217,{8C6B6AD9-4EE0-4E34-ACE4-1491822951F6},49.262584190864551,-123.24277495847262
,121-1,"Arts, Faculty of",faculty/school,,,,,,,UBC,Current,AD-123,{E7E74458-6A93-4E01-BFD3-7FAA348B4EB2},49.268351138118007,-123.25492152708667
,473,"Medicine, Faculty of",faculty/school,,,,,,,UBC,Current,AD-220,{D194C81E-6C9D-4E9F-9E49-C186C9AE2BA3},49.264861915592547,-123.24679305733586
197,790,Sprouts,minimart,,,,,,,Non-UBC,Current,AD-273,{BFE4B8C8-0EE5-49C1-B0DB-0D278BF0A450},49.266761541283557,-123.25010511684398
,465,Allan McGavin Sports Medicine Centre,campus_services,,,,,,,Non-UBC,Current,AD-198,{D4DBB576-3F16-4EA4-AE3A-F26FA60EFB61},49.264500646166773,-123.24442125530327
,199,Family Practice Teaching Unit/Clinic,campus_services,,,,,,,Non-UBC,Current,AD-136,{230CAF99-D751-4A55-869F-4F9433294EC7},49.265908008912746,-123.24634100503437
,691,Shoppers Drug Mart,retail,,,<Null>,,,,Non-UBC,UC,AD-1022,{B65119B3-F2E6-4E0B-80D3-DC94F3A7132E},49.254066622954468,-123.2364949581612
,691,Neptune Chinese Kitchen,restaurant,,,<Null>,,,,Non-UBC,UC,AD-1023,{D8A12631-D4C6-440D-8B68-CC5E72FC5ACF},49.254184699018708,-123.23595241566557
119,689,Careville Pharmacy,pharmacy,,,,,,,Non-UBC,Current,AD-341,{1EFDEDE9-4346-47DB-99B3-435AFE6775A8},49.254775642748037,-123.23567547726135
75,593-1,Tapestry,seniors,,,,,,,Non-UBC,Current,AD-235,{248DAFA5-00D1-415E-ADC9-7B538FA315EC},49.25476647130364,-123.23509749245046
,130,Telus Studio Theatre,attractions,,,,,,,UBC,Current,AD-124,{2A7C9501-DD59-404B-B396-AB4F7850C559},49.26978148101896,-123.25507091307716
,130,Royal Bank Cinema,attractions,,,,,,,UBC,Current,AD-124,{F7885221-D6D6-43A9-98B8-E420D1F6E20D},49.26978148101896,-123.25507091307716
,130,Chan Shun Concert Hall,attractions,,,,,,,UBC,Current,AD-124,{4FF59FA9-A147-40ED-9709-0AA8F4030875},49.26978148101896,-123.25507091307716
,903,AHVA Gallery,attractions,,,,,,,UBC,Current,AD-303,{7CBA071A-A88B-4BDA-BC24-4E72F971B722},49.263866091763084,-123.25456287401219
36,555,YMCA Child Care Centre,child_care,,,,,,,Non-UBC,Current,AD-23,{EE6ADA41-F9A4-4E1C-BB4F-8D6DED88C861},49.2616427134231,-123.24012957103383
,496,Lobby Gallery,attractions,,,,,,,UBC,Current,AD-206,{685986A4-CE44-4990-8EB2-D131AC554A13},49.267565132035017,-123.25928782364903
270,097,Botanical Garden Parking,parking,,,,,,,Parking,Current,AD-120,{8B1213FC-B636-4217-AAEB-BBA9EA865558},49.254839175414531,-123.2514856732744
,386,"Land and Food Systems, Faculty of",faculty/school,,,,,,,UBC,Current,AD-175,{675C7D1A-B0BE-4081-89F0-FF61787B1C5F},49.260977573197984,-123.25101566165011
,097,Canopy Walkway,attractions,,,,,,,UBC,Current,AD-120,{A8ED5EEC-7049-4FEB-8E49-9BA02F118FDC},49.254106147151219,-123.25124739952547
20,155,Child Care Services ,campus_services,,,,,,,SHHS,Current,AD-128,{6ED03B48-B218-4CBF-9138-734042A99300},49.260919522133911,-123.23421248027465
,557,UBC Vantage College,faculty/school,,,,,,,UBC,Current,AD-24,{62D87D35-007A-4315-83CC-D891593024F7},49.26007191199588,-123.25093235429897
,750,"Social Work, School of",faculty/school,,,,,,,UBC,Current,AD-258,{1E285F7C-E901-4D1E-947B-71CCF9150079},49.264478690469545,-123.2550982752151
,557,Hummingbird Child Centre,child_care,,,,,,,SHHS,Current,AD-24,{38BF8D1D-CAAA-4BAA-AA70-2C183B9332E8},49.260350940967641,-123.25068253355572
,463,"Nursing, School of",faculty/school,,,,,,,UBC,Current,AD-197,{647794A4-4897-41C8-9500-2EA48F44A9C1},49.264129705631944,-123.24596095542886
,513,"Population and Public Health, School of (SPPH)",faculty/school,,,,,,,UBC,Current,AD-208,{7446D31B-9BC4-4AEC-B3F5-240CD6C9468C},49.264255856526198,-123.24839999001436
57,,Rose Garden & Flagpole Plaza,attractions,,,,,,,UBC,Current,AD-218,{83649DB0-D373-4E9A-AC13-7FDEDD020DE3},49.269158937039343,-123.25632246601307
58,,UBC Ropes Course,athletics,,,http://www.ubcropescourse.ca,,,,Athletics,Current,AD-269,{C2174933-0DA7-4225-B4BA-83BA59D37D53},49.254219412662813,-123.24279723306515
65,,University Golf Club,athletics,,,http://www.universitygolf.com,,,,UEL,UEL,AD-128,{3D8D2F34-E822-4DEA-8BDA-CBF68CCF396C},49.263951948055045,-123.22876929844723
81,,Lutheran Campus Centre,worship,,,,,,,UEL,UEL,AD-324,{A59DCBDD-2911-4E36-B7B8-BA8033A31210},49.266711814211057,-123.24524862583043
97,,Thunderbird Park Sports Fields,athletics,,,,,,,Athletics,Current,AD-307,{5007441F-2A50-4411-B444-0AC99B67C27C},49.258144668892612,-123.2413711068849
102,,Iona Green Playground,park,,,,,,,UNA,Current,AD-281,{0E150FE0-6F0A-494E-A83E-DC5E0223B8DF},49.270668017009456,-123.2502011992931
103,,St. Andrew's Playground,park,,,,,,,UNA,Current,AD-304,{4A5E6226-491A-43C5-B55E-21D289295DFB},49.269955653872749,-123.25174648083556
104,,East Campus Park Playground,park,,,,,,,UNA,Current,AD-969,{BF541156-B518-45C7-8FCC-A2E200B32E40},49.262354998808952,-123.23987279691838
105,,Jim Taylor Park Playground,park,,,,,,,UNA,Current,AD-43,{C19EFD00-7657-4F8C-852B-20603501911B},49.259230049388002,-123.24787316391625
106,,Eagles Park Playground,park,,,,,,,UNA,Current,AD-486,{55197B32-EF43-4922-BB02-9A338994B283},49.258629430611265,-123.24639480798292
107,,Hawthorn Park Playground,park,,,,,,,UNA,Current,AD-424,{854325E2-96BC-4EAB-956C-3E00D96FF722},49.2578745703685,-123.24841154317242
108,,Nobel Park Playground + Baseball Field,park,,,http://wesbrook.app2.thoughtshop.com/posts/nobel-park#.VYm4Wfm4S70,,,,UNA,Current,AD-310,{12781C23-D56C-4FE9-8B99-3D1D4E02DE14},49.250283577354161,-123.2341950522103
109,,Mundell Park Playground,park,,,http://wesbrook.app2.thoughtshop.com/posts/mundell-park#.VYm4XPm4S70,,,,UNA,Current,AD-62,{9F951E22-FB3C-4CC4-8AAC-43C6DD9EC002},49.252074430598135,-123.23655757423064
78,802,Epiphany Chapel,worship,,,,,,,Non-UBC,Current,AD-71,{0CD7BCD0-0246-4ECF-849C-43437952475D},49.27158097111316,-123.25225681248601
137,689,Roger's Chocolates,retail,,,,,,,Non-UBC,Current,AD-349,{A1A0A29D-BE25-41BF-AEA7-257BCBE1DC12},49.254609688369129,-123.23600754097335
,795,CiTR 101.9 FM,campus_services,,,http://www.citr.ca/,,,,AMS,Current,AD-273,{B8392144-AC14-4856-B995-64C826399820},49.26633848072683,-123.24956618915373
,795,Gallery 2.0,restaurant,,,http://www.ams.ubc.ca/foodanddrink/gallery/,,,,AMS,Current,AD-273,{925385DA-D594-4F74-990C-57769D6F1E25},49.266613966876918,-123.24976406738305
118,795,AMS Confidential Support Services,campus_services,,,,,,,AMS,Current,AD-273,{3FE20FE2-C797-409C-B565-698F905F97D5},49.266445663776622,-123.24986474432258
242,795,Upper Case Cafe,cafe,,,http://www.ams.ubc.ca/foodanddrink/uppercase/,,,,AMS,Current,AD-273,{351A850E-AE44-44A9-B9B8-8E22752A92A7},49.266607836835661,-123.24976356084764
241,795,The Pit,restaurant,,,http://www.the-pit.ca/,,,,AMS,Current,AD-273,{774ABD4E-B8BD-4443-BD30-822632CA438E},49.266761541283557,-123.25010511684398
40,795,Safewalk,campus_services,,,http://www.ams.ubc.ca/services/ams-safewalk,,,,AMS,Current,AD-273,{0ECA3F94-929F-497E-B110-A508CA765710},49.266445663776622,-123.24986474432258
13,790,The Bike Kitchen,commercial_services,,,http://thebikekitchen.com/,,,,AMS,Current,AD-271,{E4A5DC5E-9D86-41BF-B54A-1A1954F4FCEB},49.268324522257529,-123.25213673157118
79,828,St. Mark's Parish,worship,,,,,,,Non-UBC,Current,AD-78,{4CD5812D-85EB-4B4B-98A0-8C22EBE47A53},49.272160691963471,-123.24894267860381
80,817-4,St. Andrew's Hall,worship,,,http://www.standrews.edu/,,,,Non-UBC,Current,AD-304,{F9ADBCBE-A410-432D-BE83-D4E0A80F06D1},49.270356884793856,-123.2518964184204
44,476,Nitobe Memorial Garden,attractions,,,http://www.botanicalgarden.ubc.ca/nitobe,,,,UBC,Current,AD-201,{0873E59F-6D84-48AF-9065-D6C2E540F519},49.266157876615281,-123.25915005567236
45,130,Chan Centre for the Performing Arts,attractions,,,http://www.chancentre.com,,,,UBC,Current,AD-124,{B5B8750C-A203-4E0D-9178-E891505F9FA9},49.269746480538885,-123.25513249220792
47,314,Beaty Biodiversity Museum,attractions,,,http://biodiversity.ubc.ca/,,,,UBC,Current,AD-161,{7920610E-5A80-41F3-8AE4-4689D3AD684E},49.263356740125595,-123.2510624632514
48,575,Roy Barnett Recital Hall,attractions,,,http://www.music.ubc.ca/about-us/facilities/roy-barnett-recital-hall.html,,,,UBC,Current,AD-229,{311BFA7E-20FB-493C-9EA2-202D9EBAB9B0},49.267439170171379,-123.25680643113702
49,420,Cecil Green Park House,attractions,,,http://www.cecilgreenpark.ubc.ca,,,,UBC,Current,AD-180,{28312EDE-10A7-48C7-9698-E15DE76F6FB6},49.271361266000483,-123.25761910094866
51,046,Asian Centre,attractions,,,http://www.asia.ubc.ca,,,,UBC,Current,AD-106,{BF7FBD9F-C9A8-4A4F-9344-FE3CE37592D2},49.26674395007489,-123.25872648234984
52,376,Frederic Wood Theatre,attractions,,,http://www.theatre.ubc.ca/index.shtml,,,,UBC,Current,AD-171,{16A4DFBE-07AA-4EBE-B5E1-F0A2CA77BB8B},49.268111167515436,-123.25683828907617
53,402,Pacific Museum of the Earth,attractions,,,http://www.eos.ubc.ca/resources/museum/,,,,UBC,Current,AD-178,{9A28EB29-3AE0-4B64-823F-70C970C97DE5},49.26267323370373,-123.25243364109124
55,097,UBC Botanical Garden and Centre for Plant Research,attractions,,,http://www.botanicalgarden.ubc.ca/centre-for-plant-research,,,,UBC,Current,AD-120,{AF603930-B2A9-4926-B5E3-425AAC085E2B},49.254012457844766,-123.25052141377705
56,344,Leon and Thea Koerner University Centre,attractions,,,http://www.library.ubc.ca/archives/facclub/welcome.html,,,,UBC,Current,AD-166,{7CAD9ED1-DBFB-4A60-9622-C761C4463808},49.26887268629374,-123.25713853519333
60,097,Greenheart Canopy Walkway,attractions,,,http://www.botanicalgarden.ubc.ca/canopy-walkway,,,,UBC,Current,AD-114,{8D8D8BE3-3F46-4760-97B3-7560D70E0A51},49.249610591902261,-123.24441758804329
61,320,Dorothy Somerset Studio,attractions,,,http://www.theatre.ubc.ca/index.shtml,,,,UBC,Current,AD-163,{D57B0A7B-C11C-48FC-A7E0-267B187B438F},49.264502596406274,-123.25442095007834
62,044,Old Auditorium,attractions,,,http://www.music.ubc.ca/about-us/facilities/old-auditorium.html,,,,UBC,Current,AD-104,{C8277C2A-2F41-44FB-8F0A-F68C06EB0006},49.266913743092523,-123.2560576970364
63,568,Morris and Helen Belkin Art Gallery,attractions,,,http://belkin.ubc.ca,,,,UBC,Current,AD-226,{EAEE213A-34E8-4577-A705-252CC9D122E4},49.268136463652588,-123.25616575255404
69,790,Norm Theatre,attractions,,,http://www.ams.ubc.ca,,,,AMS,Current,AD-271,{A14FA5E8-7049-432D-A5E6-296981F5CD37},49.267433882491474,-123.25010490016392
98,593-2,Wesbrook Village Welcome Centre,attractions,,,http://www.wesbrookvillage.com/,,,,UBCPT,Current,AD-236,{E31DECE1-7FFE-446C-A79E-6796FF4723F4},49.254161698190124,-123.23480755789961
110,,Brockhouse Park Water Park,park,,,,,,,UNA,Current,AD-57,{A8B3998C-BAE1-4B21-9F4F-E2F9180FC44B},49.253714852314317,-123.23743110247848
,795,Hatch Arth Gallery,attractions,,,http://www.ams.ubc.ca/nest/art-gallery/,,,,AMS,Current,AD-273,{5DD76C3C-56ED-4008-B51E-80C376757E34},49.266564205362577,-123.24988346767742
111,,Smith Park Playground,park,,,,,,,UNA,Current,AD-28,{D08E3B15-1BA1-42A8-9A0C-5257B5B58A38},49.253640666315363,-123.23265297125165
112,,Khorana Park Playground,park,,,http://wesbrook.app2.thoughtshop.com/posts/khorana-park#.VYm4W_m4S70,,,,UNA,Current,AD-33,{5C219840-C9FC-4A90-BEBF-203319E15ABB},49.255352909671473,-123.23227264347628
140,,Bank of Montreal,bank,,,https://www.bmo.com/main/personal,,,,UEL,UEL,AD-135,{CF087033-6048-4D14-94FA-726C925F1C66},49.26596492507263,-123.24340484734221
141,,Hannah and Samuel Flower Shop,commercial_services,,,http://www.hsflowers.ca/,,,,UEL,UEL,AD-135,{C4C88DB6-B323-47CC-ADEA-A8F6830BF5CE},49.266226243130689,-123.2436357600765
142,,CIBC,bank,,,http://www.cibc.com/,,,,UEL,UEL,AD-323,{493E486C-6B86-45D3-96D9-E62C8E535B3A},49.266410174379047,-123.24378124822866
143,,University Pharmacy,pharmacy,,,,,,,UEL,UEL,AD-323,{90874833-0881-4A23-9199-95AEBA511783},49.266494939711613,-123.24327173892763
144,,Copiesmart,commercial_services,,,http://www.copiesmart.com/,,,,UEL,UEL,AD-323,{6DF4919C-09C8-4F4E-9D56-0407E3FE6F58},49.266658028235554,-123.24286170471582
145,,University Drycleaners,commercial_services,,,,,,,UEL,UEL,AD-323,{4CDF31A9-6F63-4677-B962-34AC7AEDAF5A},49.266635474207114,-123.24298379956198
146,,Staples,commercial_services,,,http://www.staples.ca/,,,,UEL,UEL,AD-816,{EF1FBA68-6F70-4C72-ADDB-3D6B9D208395},49.266260236514135,-123.24219666451206
148,,Granville Island Produce At University,grocery,,,,,,,UEL,UEL,AD-135,{9F4DA4F8-2234-4302-964B-EE1572F75E81},49.265752072436641,-123.24300220724886
149,,House of Vision,retail,,,http://houseofvisionoptical.com/,,,,UEL,UEL,AD-816,{059C135F-A14C-4A3A-AB1E-7BCBBBB791A5},49.266000225780637,-123.24230761262874
150,,Pacific Spirit Dental,medical,,,http://www.pacificspiritdental.ca/,,,,UEL,UEL,AD-135,{BE35F8B6-3782-4B67-90DF-55FA7EFF0FD2},49.265954889906709,-123.24282520588903
151,,Prime News,retail,,,,,,,UEL,UEL,AD-135,{F26CC97C-1001-41FC-94D1-3F838ABA62CB},49.266003790999783,-123.24304019971372
152,,University VIllage Medical Clinic,medical,,,,,,,UEL,UEL,AD-816,{44635415-0012-4EF1-9F81-ECD603EB08ED},49.26634190139832,-123.24225499008
153,,Little Mountain Learning Academy ,commercial_services,,,http://www.lmacademics.com/,,,,UEL,UEL,AD-135,{4EC2FAF0-4E75-4A7F-A4FC-9F304F27357B},49.26579757985148,-123.24304937486286
154,,Cellworks Communication Inc.,commercial_services,,,http://www.cellworks.ca/,,,,UEL,UEL,AD-135,{E6A1289D-9C4B-441E-9978-E98988B92573},49.266171415419855,-123.24292663698238
155,,"Dollar ""N"" Plus ",retail,,,,,,,UEL,UEL,AD-816,{58997D2D-C7CA-4ECD-8E4D-0F0AE9681672},49.266045044684418,-123.24218092161861
156,,Discount Textbooks,retail,,,http://www.discounttextbooks.ca/,,,,UEL,UEL,AD-135,{0AD00C10-16C7-4685-9205-894B8B1863C5},49.265917006612362,-123.24306133430554
158,,Regent College,commercial_services,,,,,,,UEL,UEL,AD-135,{2F17036C-1282-4564-BE5B-E6AE6F210E4D},49.265675499198068,-123.24408387347772
159,,Bubble Waffle Cafe,cafe,,,http://www.bubblewafflecafe.com/,,,,UEL,UEL,AD-323,{53615EDF-2F18-41C2-A7AD-4A90F07DFBF0},49.266681077224042,-123.24269276755552
160,,Omio Japan Restaurant ,cafe,,,,,,,UEL,UEL,AD-135,{81CE9B4F-C8CE-41A1-B20F-CE49D02571B4},49.265938659463366,-123.24247502148461
161,,One More Sushi ,restaurant,,,http://onemoresushi.ca/,,,,UEL,UEL,AD-135,{8C049B70-19B8-43B6-A883-E0AAE82DC3A0},49.266024317567577,-123.24252673734144
162,,Subway,cafe,,,http://www.food.ubc.ca/place/subway/,,,,UEL,UEL,AD-135,{7C418D88-1A8C-4092-8E7B-B31B71A4A35B},49.265895690029964,-123.24320269868882
163,,5 Tastes,restaurant,,,http://5tastes.ca/,,,,UEL,UEL,AD-135,{D4D09029-EE26-4868-ACEE-F2C2F4538D45},49.266221501551271,-123.24295192829904
164,,Booster Juice,cafe,,,http://boosterjuice.com/,,,,UEL,UEL,AD-135,{93F93928-E967-4765-A341-FE664093F64D},49.266074584100849,-123.24283490366251
165,,Only U Cafe,cafe,,,http://www.facebook.com/pages/Only-U-Cafe/431021496919221,,,,UEL,UEL,AD-816,{E2B7C0C2-030F-4AAB-A892-E692EDF8A2FC},49.26597737250944,-123.24238053634446
166,,Mini Super,minimart,,,http://www.facebook.com/pages/Mini-Super-at-UBC/249485448568472?sk=timeline&amp;ref=page_internal,,,,UEL,UEL,AD-323,{76FA900D-8199-4793-AE6A-B85CC1A8244B},49.26664466105926,-123.24267475830753
173,,Suga Sushi,cafe,,,,,,,UEL,UEL,AD-323,{378EC252-AAB2-4EDD-8DC3-28D9C795B0E6},49.266697241257106,-123.24257942725954
174,,McDonald's,cafe,,,http://www.mcdonalds.ca/ca/en.html,,,,UEL,UEL,AD-323,{5FA41F61-ED81-4FBF-83DB-4CEC6FBADFEC},49.26670527529479,-123.24251152540305
147,,Gold's Gym,commercial_services,,,http://goldsgymbc.ca/,,,,UEL,UEL,AD-816,{7E84A6D0-91C6-42FF-9691-9DABA87A7288},49.266319747952849,-123.24230777250673
175,,Student Lucky Market,minimart,,,,,,,UEL,UEL,AD-323,{03EBFC8D-4B68-4BC1-BB07-7AB18FAA7F94},49.26661407782565,-123.24308447354316
176,,Red Burrito,cafe,,,http://www.redburrito.ca/,,,,UEL,UEL,AD-135,{49D75F3B-66AC-4E99-B712-90FC04CD4F6F},49.26571250168633,-123.24321122069169
177,,Pearl Fever Tea House ,cafe,,,http://www.pearlfever.ca/,,,,UEL,UEL,AD-135,{FC1391E4-9166-489D-8D82-AF838E2AC102},49.265869917896985,-123.24317617836358
178,,Starbucks,cafe,,,http://www.food.ubc.ca/place/starbucks/,,,,UEL,UEL,AD-135,{D91A8AEC-BED8-420A-9D4F-635C335F50F0},49.265850219196473,-123.24274930499206
179,,Pita Pit,cafe,,,http://pitapit.ca/,,,,UEL,UEL,AD-816,{A7AB12B4-37E7-4917-86AA-57B9F538671C},49.266090298756893,-123.24212423745412
180,,International Food Court,cafe,,,,,,,UEL,UEL,AD-323,{CC39405B-3704-471A-BF97-3719CC109024},49.266632885473371,-123.24280917942993
181,,Pizza Garden,cafe,,,http://www.pizzagarden.ca/,,,,UEL,UEL,AD-323,{812B771F-0E33-47C6-9B22-250DDA7BE667},49.266464776698122,-123.243496912602
182,,A&W,cafe,,,http://www.aw.ca/,,,,UEL,UEL,AD-323,{10606988-338D-4765-9C09-E02065DEFD45},49.266470069594362,-123.2434366676784
183,,Blenz,cafe,,,http://blenz.com/,,,,UEL,UEL,AD-323,{7778E22F-8FE5-4A36-ACA0-82F831B3F8AD},49.266455819762548,-123.24357648204396
184,,Vera's Burger Shack,cafe,,,http://www.verasburgershack.com/,,,,UEL,UEL,AD-135,{AE01C99A-5164-4347-9DD0-4E2F3AC64E4D},49.265798609816756,-123.2432707732132
230,,Oven Fresh Bakery,cafe,,,,,,,UEL,UEL,AD-135,{F4622511-5EE4-4B29-A153-46DE73F71132},49.266037315312502,-123.24346785730928
234,,"Rasoee, the Indian Kitchen",cafe,,,,,,,UEL,UEL,AD-135,{CF412011-78B7-4775-A21D-5F72FABCAA1E},49.266009755760038,-123.24344481515971
254,,Acadia Park Playground,park,,,,,,,SHHS,Current,AD-706,{D1FA70C4-5EF8-47D3-9F6E-6B42524EB454},49.26293650517816,-123.23806540689517
255,,UBC Skate Park,park,,,,,,,UNA,Current,AD-270,{699F0BBC-A9CF-42B1-BD15-D867C83315BD},49.260842147762013,-123.24447125607365
256,,Basketball Court,park,,,,,,,UNA,Current,AD-224,{657C39D5-7ABD-4375-B305-B61398C6242E},49.260974425640043,-123.24404426648545
260,,Diesel Bus Loop,transit,,,,,,,TransL,Current,AD-315,{4BA3FF5E-DF02-445A-96FC-B2BCE94E745B},49.268090919633181,-123.24765354339952
261,,Trolley Bus Loop,transit,,,,,,,TransL,Current,AD-334,{EA6D564A-F211-44FF-92F5-7DFA2400504E},49.26578629734108,-123.24822312071954
,,UBC Parking Impound Lot,campus_services,,,,,,,Parking,Current,,{5C1B3484-DBD6-420C-BFA4-FB4D916EE845},49.260457172516681,-123.2469113969635
,,University Village various venues,retail,,,,,,,UEL,UEL,,{02883A53-BD2C-4462-A972-989656D89591},49.266260700547981,-123.24279204214061
263,,Music Parking Lot,parking,,,,,,,Parking,Current,AD-218,{1A3DAEA9-FD8A-4312-A93A-8E87BB979371},49.26741085290152,-123.2573749834451
11,593-1,Running Room,retail,,,http://www.runningroom.com/hm/inside.php?id=4442,,,,Non-UBC,Current,AD-358,{E551A27C-D0DA-4AE8-9848-546D23FBF916},49.254952533927124,-123.23541118229396
15,199,Shoppers Drug Mart,pharmacy,,,www.shoppersdrugmart.ca/,,,,Non-UBC,Current,AD-324,{51FD2647-B8EA-43AC-8BF2-12C223C92715},49.266108415990395,-123.24581134632729
38,852,RCMP,campus_services,,,http://university.bc.rcmp-grc.gc.ca/,,,,Non-UBC,Current,AD-286,{AE781FC9-5619-430F-B137-8C81E389CCA4},49.258699705904888,-123.23824239915558
41,852,University Fire Hall #10,campus_services,,,http://www.vanffcpr.org/location/location.php?id=10,,,,Non-UBC,Current,AD-286,{517CF01B-E1CA-4737-B5B4-CE810B8A4296},49.259020287787251,-123.23854134587133
233,694,Togo Sushi,cafe,,,http://www.togosushi.ca/ubc.html,,,,Non-UBC,Current,AD-336,{DE171756-3A00-40F4-8CF8-F66FD37A466B},49.253981214982211,-123.23539249695295
236,007-0,The Original Beanery,cafe,,,,,,,Non-UBC,Current,AD-929,{A6DBA211-A353-48B0-9353-45B89CD44E84},49.263599447893881,-123.23946840731746
237,386,Agora Cafe,cafe,,,,,,,UBC,Current,AD-175,{AFAB3613-9791-417E-A131-3643F7310FC4},49.260914609931518,-123.25112674615626
238,606,Fit For Life,minimart,,,,,,,Non-UBC,Current,AD-238,{B199A2D8-69B2-4AFF-9157-9497D130249E},49.261340325200983,-123.24647739253953
239,795,INS Market,minimart,,,,,,,Non-UBC,Current,AD-273,{691F97D6-3BAE-47DD-BF0C-6C2F719CE040},49.26633848072683,-123.24956618915373
240,795,Delly,cafe,,,,,,,Non-UBC,Current,AD-273,{3C09B67F-A730-487A-8668-B7485F1CC0F7},49.266607836835661,-123.24976356084764
113,795,Merit Travel,commercial_services,,,http://merittravel.ca,,,,Non-UBC,Current,AD-273,{DF7FA7DE-619B-4874-ADAA-0B444627EB75},49.266686435300059,-123.24994945026094
114,795,i Campus Vision,retail,,,https://www.campusvision.com/,,,,Non-UBC,Current,AD-273,{8BDC47C5-87E7-4812-B3D8-C8702F345256},49.266683126598792,-123.2499541455021
115,795,On the Fringe,commercial_services,,,http://www.onthefringehairdesign.com/,,,,Non-UBC,Current,AD-273,{4B1CA008-DD96-4651-A81C-C8CD854DFA50},49.266679038395658,-123.24993828867058
116,795,Blooming Gift Shop,retail,,,,,,,Non-UBC,Current,AD-273,{63E10D3E-6C0D-4D45-8C9D-DEA320C0D7C9},49.266683126598792,-123.2499541455021
117,795,Wireless Wave,retail,,,http://www.wirelesswave.ca,,,,Non-UBC,Current,AD-273,{BEED113E-D94B-47D8-9C86-9D5EAF739B68},49.266676981359765,-123.24994403214244
120,689,More Bikes,retail,,,http://www.morebikes.ca/,,,,Non-UBC,Current,AD-353,{2A59EC0B-1C5D-4A65-BB45-4153D21B1EBF},49.254465788147549,-123.23587713364579
121,694,Mozart School of Music,commercial_services,,,http://www.msmvan.com/,,,,Non-UBC,Current,AD-339,{99736449-01BB-4BB5-B654-76F0D9F54120},49.253712792155063,-123.23525503436595
,473,The Media Group ,campus_services,,,,,,,UBC,Current,AD-220,{F41E812E-EEA8-48D3-9050-7AE94713F4C4},49.264870415647351,-123.24666646302998
,516,Wellness Centre,campus_services,,,,,,,UBC,Current,AD-210,{0571CE92-2BCB-41D2-A5BF-18D637E960EE},49.26761830216639,-123.25268719935728
54,432,UBC Tennis Centre,athletics,,,http://sportfacilities.ubc.ca/tennis-centre/,,,,Athletics,Current,AD-450,{24727CE2-04EE-494E-85EF-B342ACF90268},49.259754026595644,-123.24493795495518
64,774,Birdcoop Fitness Center,athletics,,,http://www.birdcoop.ubc.ca/index.php,,,,Athletics,Current,AD-268,{B386D785-77F6-4C71-A7F4-7F48924E74A0},49.26835931956343,-123.24878826162121
66,627,Old Barn Community Centre Exercise Room,athletics,,,,,,,UNA,Current,AD-43,{6A3138C6-7232-45D7-AE75-FB794420235C},49.25901355556411,-123.24839438379109
67,428,War Memorial Gym,athletics,,,http://sportfacilities.ubc.ca/wmg,,,,Athletics,Current,AD-182,{57C5BB13-C7A1-4B21-9672-9BECEA2D303C},49.266616540830562,-123.24806363198806
68,785,Thunderbird Stadium,athletics,,,http://sportfacilities.ubc.ca/thunderbird-stadium/,,,,Athletics,Current,AD-269,{A3B966E2-14E8-407A-92F8-22365428D27E},49.254798923595686,-123.24468077943612
70,868,Doug Mitchell Thunderbird Sports Centre,athletics,,,http://sportfacilities.ubc.ca/dmc/,,,,Athletics,Current,AD-295,{544B3BB5-D634-42DF-92E2-D04C6BF379DC},49.260345672877932,-123.24197878189329
71,760,Rugby Pavilion,athletics,,,,,,,Athletics,Current,AD-259,{82E9041E-C5EC-4BDD-90D5-11B333EC82B6},49.258668280179599,-123.24401446167704
72,433,UBC Tennis Centre,athletics,,,http://sportfacilities.ubc.ca/tennis-centre/,,,,Athletics,Current,AD-184,{F1A48F49-68B0-40C1-9FA5-DF4B7640A3E5},49.259438629341311,-123.24341827153856
73,422,Cecil Green Park Squash Court,athletics,,,http://www.ubcsquash.com,,,,Athletics,Current,AD-180,{69F308CE-8A01-4086-BEA2-5716333D169A},49.271419951680663,-123.25705605542468
74,034,Aquatic Centre,athletics,,,http://www.aquatics.ubc.ca,,,,Athletics,Current,AD-102,{BC9FA489-A998-4F4D-B592-443CDE4B7A99},49.267896641465214,-123.24838462298297
92,697,Wesbrook Fitness Centre,athletics,,,,,,,UNA,Current,AD-57,{EFFD60B2-9671-41DD-A644-9A16BD5B3161},49.254159603587091,-123.23752426407786
93,430,Bodyworks Fitness Centre,athletics,,,,,,,KIN,Current,AD-183,{DD6E170A-6178-4326-9420-1792F29CFA7C},49.26027955886498,-123.24370139379991
94,904,Ponderosa Commons Studio,athletics,,,,,,,Athletics,Current,AD-84,{3B0B7924-F7DE-4BEB-92F7-2444544240EF},49.2635278859889,-123.25568194588
95,434,Gerald McGavin UBC Rugby Centre,athletics,,,http://sportfacilities.ubc.ca/gmrc/,,,,Athletics,Current,AD-185,{94B23820-95EE-402E-BD0D-3D192D39BCF8},49.259615287007641,-123.24132161963648
96,862,UBC Baseball Indoor Training Centre,athletics,,,,,,,Athletics,Current,AD-308,{4E776576-D8D2-487B-BF9F-8108BCD36815},49.256402994063968,-123.23978720767171
253,868,Thunderbird Arena,athletics,,,<Null>,,,,Athletics,Current,AD-185,{D423F318-9A62-4FF6-9A9E-B51A17F31D06},49.259932522432948,-123.24168781341375
,774,Student Recreaction Centre (SRC),athletics,,,,,,,Athletics,Current,AD-268,{5D0243A8-DD1D-4B62-9142-759CDB570948},49.268255591522127,-123.24923101189276
,795,The Aviary,athletics,,,http://www.facebook.com/aviaryUBC,,,,AMS,Current,AD-273,{FA8A00C2-8951-4573-9C61-012A0A528F95},49.26633848072683,-123.24956618915373
43,847,TRIUMF - Canada's National Laboratory for Particle and Nuclear Physics,attractions,,,http://www.triumf.ca/,,,,Non-UBC,Current,AD-283,{A80441FF-E4A2-44CA-9B84-20C95AEE353E},49.247111933637903,-123.23011622885325
23,200,Lilliput,child_care,,,,,,,SHHS,Current,AD-139,{335A1DEB-4A5D-4523-B4F4-8F8928472B9B},49.259477165910148,-123.23537424435926
24,203,Little Goslings,child_care,,,,,,,SHHS,Current,AD-141,{CFEA0350-528B-4769-AC9C-B89CFE642108},49.259883472001405,-123.23415548232067
25,451,Kids Club Jr.,child_care,,,,,,,SHHS,Current,AD-92,{F1DEB712-E03B-4DEC-9621-052E2908BDBC},49.261862183905052,-123.23529238547687
26,206,Sandpiper,child_care,,,,,,,SHHS,Current,AD-145,{5C888457-266D-494B-ADDA-D0753E1DACC2},49.260329496846154,-123.23480061330289
27,200,Summer of '73,child_care,,,,,,,SHHS,Current,AD-138,{4825D4C0-C5A5-4EBE-8D25-07530E24291F},49.259420000174934,-123.2355623680248
28,201,Canada Goose,child_care,,,,,,,SHHS,Current,AD-140,{C1272341-4840-4353-AC6E-02649C7CB862},49.259622661447501,-123.23488512378472
29,207,Acadia,child_care,,,,,,,SHHS,Current,AD-147,{F2B868E0-BC23-4340-9836-6DEE7AE0008F},49.260891346655569,-123.23472918970837
30,051,Owl at the Barn,child_care,,,,,,,SHHS,Current,AD-108,{C5B4FFE3-D35E-46BD-922E-BF3A2FC7D06C},49.262006488450822,-123.25118382189211
31,203,Coho,child_care,,,,,,,SHHS,Current,AD-141,{BAB226C1-2DEA-41D0-B7E3-7BD75AB7BB5B},49.259945852409949,-123.2339550477754
32,206,Auklet,child_care,,,,,,,SHHS,Current,AD-146,{B4427C08-A450-4D4A-9607-731C930556D9},49.260187223817205,-123.23467493814539
33,202,Sitka,child_care,,,,,,,SHHS,Current,AD-140,{8562AA78-09BA-42CC-8813-A2C92F091989},49.259727495589608,-123.2346189330586
34,205,Kittiwake,child_care,,,,,,,SHHS,Current,AD-143,{FD910C39-D91A-4C91-8EDD-4A0A5A3FD2DF},49.260075739531658,-123.23533884789207
35,204,Pacific Spirit,child_care,,,,,,,SHHS,Current,AD-142,{0D904D6D-DEAB-4161-9FBB-D4FA9DDB0269},49.260286524854223,-123.2338221525558
36,770-3,Huckleberry,child_care,,,,,,,SHHS,Current,AD-267,{ABD87F8A-9880-476E-8AE4-57DC778922BC},49.261150640688946,-123.23944740617061
46,872-2,Conferences & Accommodation at UBC,commercial_services,,,http://www.ubcconferences.com/,,,,SHHS,Current,AD-1013,{5F458C0B-DD59-4CC2-B687-4E32FADC9277},49.26943899961293,-123.24864133537352
83,418,Green College,housing_student,,,http://www.greencollege.ubc.ca/,,,,SHHS,Current,AD-5,{A79B41E9-F535-42C1-95A1-BA6786FA4CF0},49.270922059464056,-123.25640728559476
84,544,Place Vanier Residence,housing_student,,,,,,,SHHS,Current,AD-19,{55A80232-E297-46F8-83C4-ACF0DA9F7416},49.264631068509729,-123.25853169858081
85,822-1,St. John's College,housing_student,,,http://stjohns.ubc.ca/,,,,SHHS,Current,AD-278,{209E58E7-DDA6-4342-B16E-2ED81044D208},49.262752855740771,-123.25623114693104
86,377-1,Marine Drive Residence Front Desk,housing_student,,,http://vancouver.housing.ubc.ca/residences/marine-drive-residence/,,,,SHHS,Current,AD-172,{EB8C67A2-E23C-43B3-8DC6-43D06AE7DBE0},49.261440604296872,-123.25675873749883
87,540-1,Totem Park Residence Front Desk,housing_student,,,,,,,SHHS,Current,AD-223,{3DB10C03-013F-4A12-9CEB-18152D4117E4},49.258029726702453,-123.25301100677396
88,783,Thunderbird Residence  Front Desk,housing_student,,,http://vancouver.housing.ubc.ca/residences/thunderbird/,,,,SHHS,Current,AD-70,{FE1DF49F-B252-405F-869B-3A6E02A6FB54},49.259440195411642,-123.24931566004287
89,007-0,Fairiew Crescent Residence ,housing_student,,,,,,,SHHS,Current,AD-898,{21721776-5742-4679-85B5-1DE594C1A027},49.26341128668885,-123.23971098481715
90,011,Acadia Park Residence Front Desk,housing_student,,,http://vancouver.housing.ubc.ca/residences/acadia-park/,,,,SHHS,Current,AD-91,{C55E547A-CFE1-4D24-BE48-00BA6D72A826},49.262586920099942,-123.23733453920795
157,904,Ponderosa Commons Residence Front Desk,housing_student,,,http://vancouver.housing.ubc.ca/residences/ponderosa-commons/,,,,SHHS,Current,AD-258,{B7A6401F-7E39-4FCA-9730-C33ED6D07442},49.264230171395376,-123.25545417914117
185,344,Sage Bistro,restaurant,,,http://www.food.ubc.ca/place/sage/,,,,SHHS,Current,AD-166,{FB1FEAA7-6F9B-4677-A076-F04AD7DFD7B4},49.268817093546687,-123.25692568779756
186,344,Ideas Lunch & Wine Bar,restaurant,,,http://www.food.ubc.ca/place/ideas-lunch-wine-bar/,,,,SHHS,Current,AD-166,{86C2DD07-FE4D-4033-B3D9-4C54F49D2514},49.268852754701122,-123.25681255291259
188,377-1,The Point Grill,restaurant,,,http://www.food.ubc.ca/place/pointgrill/,,,,SHHS,Current,AD-248,{6B8043C5-EBF6-4039-8BBD-FCA09764F4AD},49.261728434273834,-123.25545609139705
190,540-1,Totem Park Dining Room,restaurant,,,http://www.food.ubc.ca/place/totem-park-dining-room/,,,,SHHS,Current,AD-223,{AB57A125-F41B-45E6-8A41-B0FAA98C1575},49.257879609923371,-123.25281210041379
191,544,Vanier's Dining Room,restaurant,,,http://www.food.ubc.ca/place/vaniers-dining-room/,,,,SHHS,Current,AD-19,{B4E723BD-789B-484E-8031-D0E6BC7AFE41},49.264722708623239,-123.2586809980353
192,869-1,Gage Mini Mart,minimart,,,http://www.food.ubc.ca/place/gage-mini-mart/,,,,SHHS,Current,AD-297,{277C0C99-EE49-4B34-827C-174CE384BFE2},49.269435970364661,-123.24961740059862
193,544,Hubbards,minimart,,,http://www.food.ubc.ca/place/hubbards,,,,SHHS,Current,AD-19,{D2C2E848-DBD3-4F4D-8628-6682A70EBEF4},49.264880670378439,-123.25881820022427
196,540-1,Magda's,minimart,,,http://www.food.ubc.ca/place/magdas/,,,,SHHS,Current,AD-223,{0CD77121-EAA6-4721-8C20-88E0B82DE56C},49.257879609923371,-123.25281210041379
229,633,The Loop Cafe,cafe,,,http://www.food.ubc.ca/place/loop-cafe/,,,,SHHS,Current,AD-243,{7F3EFA20-E015-46E3-97AB-CA39B63EE1F9},49.261883323668677,-123.25303539952307
224,165,Reboot Cafe,cafe,,,http://www.food.ubc.ca/place/reboot-cafe/,,,,SHHS,Current,AD-130,{EDF26827-8BB8-4507-8EB6-4CFB18E9CACB},49.260932546240852,-123.24860455347131
,516,The Chung Collection Exhibition,attractions,,,,,,,Library,Current,AD-210,{1CF1D9A9-35DA-40BF-91C3-6AC3C920565C},49.267556280998747,-123.25278018042512
50,570,Museum of Anthropology (MOA),attractions,,,http://www.moa.ubc.ca,,,,UBC,Current,AD-228,{7EBA8F9C-E443-4D6A-9CFF-741EC0EBECF7},49.269411739911256,-123.25904271135084
12,686,RBC,bank,,,http://www.rbcroyalbank.com/personal.html,,,,Non-UBC,Current,AD-230,{A74214FB-8608-4B48-901D-52122C031EE9},49.25500851818483,-123.23598451126044
91,199,Scotia Bank,bank,,,"http://www.scotiabank.com/ca/en/0,,2,00.html",,,,Non-UBC,Current,AD-325,{3DD1447B-6FB4-4B42-A9D6-D21BAA55B84C},49.266044138684578,-123.24618324324913
251,795,Ph Tea,cafe,,,http://www.ams.ubc.ca/foodanddrink/phtea/,,,,AMS,Current,AD-273,{90135DD1-4EAA-400A-880A-D284E1A2FC09},49.266607836835661,-123.24976356084764
,689,Freshii,cafe,,,,,,,Non-UBC,Current,AD-344,{D37ABCC4-D78E-439C-94EB-7A6272EBC1D2},49.254396402959081,-123.23536440492202
217,689,Murchie's Tea and Coffee,cafe,,,http://www.murchies.com/store/,,,,Non-UBC,Current,AD-340,{1D34D75D-B399-4653-9376-50D095D5970C},49.254837859304885,-123.23572654677649
213,797,Loafe Cafe,cafe,,,,,,,Non-UBC,Current,AD-274,{B586ACF4-E9CA-42B7-95CA-AAAEE29CB9FE},49.265855271543472,-123.2501393390575
214,225,Magma Cafe,cafe,,,http://www.food.ubc.ca/place/magma-cafe/,,,,SHHS,Current,AD-178,{C7283DDC-DB2C-4FB8-AE32-4949B7AA082E},49.262646857099206,-123.25183385200059
216,904,Mercante,cafe,,,http://www.food.ubc.ca/place/mercante/,,,,SHHS,Current,AD-303,{766C53E1-C0B8-41AD-AADC-5AD7BF5AC9A3},49.263762641380218,-123.25501524423059
219,314,Niche Cafe,cafe,,,,,,,SHHS,Current,AD-161,{4D413B04-3EA3-43AE-B306-51F063F63D19},49.263054533991181,-123.25083349460979
220,790,Pacific Spirit Place,cafe,,,,,,,SHHS,Current,AD-271,{A553B28C-5EAF-49B8-83A5-386F3E3C3628},49.267392449170998,-123.249760388713
227,606,Starbucks,cafe,,,http://www.food.ubc.ca/place/starbucks/,,,,SHHS,Current,AD-238,{8670F50D-FF34-41D7-A529-B2F639640719},49.261308099126957,-123.24659533559939
228,121-1,Stir It Up,cafe,,,http://www.food.ubc.ca/place/stir-it-up-cafe/,,,,SHHS,Current,AD-123,{BD0F7862-7C28-43D6-B899-30C7D1262414},49.268357457116892,-123.25474091026412
212,482,Law Cafe,cafe,,,http://www.food.ubc.ca/place/law-cafe/,,,,SHHS,Current,AD-203,{A277DA9A-94F2-4049-8D15-D2C8992539DF},49.269951855529243,-123.25365350378358
210,473,IRC Snack Bar,cafe,,,http://www.food.ubc.ca/place/irc-snackbar/,,,,SHHS,Current,AD-220,{75B7EF44-DD9C-4579-ADB9-4CE02091E640},49.264666122667556,-123.24731530916939
209,516,Ike's Cafe,cafe,,,http://www.food.ubc.ca/place/ikes/,,,,SHHS,Current,AD-210,{1F8F2D1F-DBA4-4729-8D2B-FFD91E8CD938},49.26720170054918,-123.25276539584951
208,841,Great Dane Coffee,cafe,,,http://www.greatdanecoffee.com/,,,,Non-UBC,Current,AD-82,{D971EC27-A78C-4803-8582-396348E41487},49.270078404416765,-123.25073536502531
207,790,Daily Dose Cafe,cafe,,,http://www.food.ubc.ca/place/daily-dose/,,,,SHHS,Current,AD-217,{62CD79E9-CD85-4A0E-BDB4-42885E209272},49.26249985809784,-123.2430474562848
206,463,Corner Cafe,cafe,,,,,,,Non-UBC,Current,AD-197,{0618732E-0567-4359-A375-74D70D78C4B8},49.26464779131723,-123.24610204776089
205,529,Caffe Perugia,cafe,,,http://www.food.ubc.ca/place/caffe-perugia,,,,SHHS,Current,AD-219,{CBB66FCD-FEA3-4FFC-A207-0D09DA429278},49.262252020732532,-123.24482251846568
204,570,Cafe MOA,cafe,,,http://www.food.ubc.ca/place/cafe-MOA/,,,,SHHS,Current,AD-228,{73978A38-EFF2-41E6-832D-CEB28462A291},49.269334332530725,-123.25926089174963
203,199,Boulevard Coffee,cafe,,,,,,,Non-UBC,Current,AD-326,{7F93F0FB-6D9A-437A-9D61-13382846F176},49.266010556308302,-123.24641010461951
201,694,Blenz Coffee,cafe,,,http://blenz.com/,,,,Non-UBC,Current,AD-53,{B1484B28-183B-48CF-B667-3F37E3EF0594},49.254026928101503,-123.2350831158638
171,627,Bean Around The World,cafe,,,http://batw.ca/,,,,Non-UBC,Current,AD-43,{80129C81-8E09-44AC-A4D5-F53DAF052B08},49.258853926191193,-123.24804777058098
170,593-1,Menchie's Frozen Yogurt,cafe,,,http://www.menchies.ca/,,,,Non-UBC,Current,AD-362,{680D0FF6-FE7E-4DF2-9679-74DD6C917015},49.254371991642294,-123.23497908623813
169,593-1,Jugo Juice,cafe,,,http://www.jugojuice.com/en/locations/british-columbia,,,,Non-UBC,Current,AD-361,{C23448B7-5A9E-4CEB-8357-2EBBA2363F3C},49.254470405742588,-123.23505868451254
168,689,Dough Girls Baking,cafe,,,http://www.doughgirlsbakeshop.com/,,,,Non-UBC,Current,AD-351,{50A5757E-D753-40F4-8394-2F4C1FD44D6B},49.254566866471329,-123.23590849520679
271,465,Ami Cafe,cafe,,,,,,,Non-UBC,Current,AD-198,{1A1ED876-9BD0-4485-A0A3-9C2E6225E957},49.264614539844189,-123.24447233592359
251,795,Soup Market,cafe,,,,,,,Non-UBC,Current,AD-273,{EA29B45E-1109-4544-B2AA-1D522F0B8395},49.266607836835661,-123.24976356084764
250,795,Pie R Squared,cafe,,,http://www.ams.ubc.ca/foodanddrink/piersquared/#,,,,AMS,Current,AD-273,{CEC30D2A-F494-4C55-AB2F-C6A094F66D72},49.266607836835661,-123.24976356084764
249,795,Grand Noodle Emporium,cafe,,,http://www.ams.ubc.ca/foodanddrink/grandnoodle/,,,,AMS,Current,AD-273,{FBA5A766-9645-4366-8655-4AFC20BAAC70},49.266607836835661,-123.24976356084764
248,795,Qoola,cafe,,,http://www.qoola.com,,,,Non-UBC,Current,AD-273,{B0077BC0-DAF7-4E59-9670-CD7E11A5C301},49.266607836835661,-123.24976356084764
247,795,Honour Roll,cafe,,,http://www.ams.ubc.ca/foodanddrink/honourroll,,,,AMS,Current,AD-273,{A4AE5A21-42A6-44FF-99E4-4B1A1B8D26D3},49.266607836835661,-123.24976356084764
246,795,Liquid Nutrition,cafe,,,http://www.liquidnutrition.com/,,,,Non-UBC,Current,AD-273,{824E5134-A7B9-4CEE-A2C3-2ED9C4490EBC},49.266607836835661,-123.24976356084764
245,795,Flipside,cafe,,,http://www.ams.ubc.ca/foodanddrink/flipside/,,,,AMS,Current,AD-273,{D141C79E-B510-4581-A47A-EEF7475B6983},49.266607836835661,-123.24976356084764
244,795,Palate,cafe,,,http://www.ams.ubc.ca/foodanddrink/palate/,,,,AMS,Current,AD-273,{121F95DB-B66C-4399-8670-26A8F2D68F10},49.266607836835661,-123.24976356084764
2,046,Asian Library,libraries,,,http://asian.library.ubc.ca,,,,Library,Current,AD-106,{BE48BFCE-FF59-4216-8AD4-F06695DA7F56},49.266726767274371,-123.25854410785807
3,575,Music Library,libraries,,,http://music.library.ubc.ca,,,,Library,Current,AD-229,{BD335542-417A-4906-883D-EB9765A35FCD},49.267346879983826,-123.25671342998801
4,337,Xwi7xwa Library,libraries,,,http://xwi7xwa.library.ubc.ca/,,,,Library,Current,AD-165,{76D1ACC8-E2AD-4634-A2F2-48FAD84E05B9},49.265539674285897,-123.25739270272479
6,482,Law Library,libraries,,,http://www.library.ubc.ca/law,,,,Library,Current,AD-203,{A9544066-A67A-4337-B60D-88C752BB81C0},49.269910185880249,-123.25336458161306
7,536,Woodward Library,libraries,,,http://www.library.ubc.ca/bmb/,,,,Library,Current,AD-220,{554CF6DE-E2AA-4C0A-A096-5E47ECA9FC95},49.264598036470204,-123.24750374701524
10,516,Irving K Barber Learning Centre,libraries,,,http://www.ikebarberlearningcentre.ubc.ca/,,,,Library,Current,AD-210,{A5B99026-3D59-47A5-B912-9D206649006C},49.267556260368622,-123.2527053114248
,516,Chapman Learning Commons,campus_services,,,http://learningcommons.ubc.ca/,,,,Library,Current,AD-210,{046919A1-9955-4364-A219-9C1158B4157B},49.267627084505946,-123.25292961210373
,515-1,Humanities & Social Sciences,libraries,,,http://www.library.ubc.ca/koerner,,,,Library,Current,AD-209,{95BD0D43-8454-4F5B-9192-8A6EEA9CCD16},49.266654508232762,-123.25513141498396
,515-1,Microforms & Journals ,libraries,,,http://www.library.ubc.ca/koerner,,,,Library,Current,AD-209,{AC6194F0-8A9E-434C-A07A-D02162BFB3FB},49.266654508232762,-123.25513141498396
,516,"Music, Art & Architecture LIbrary",libraries,,,http://www.ikebarberlearningcentre.ubc.ca/,,,,Library,Current,AD-210,{6EFEC048-8515-40AB-AC05-CB034FBD7956},49.267876043108132,-123.25297605488595
,516,Rare Books and Special Collections,libraries,,,http://www.ikebarberlearningcentre.ubc.ca/,,,,Library,Current,AD-210,{0F4F9900-BC69-472B-A681-5BAEA324DC42},49.267876043108132,-123.25297605488595
,516,University Archives,libraries,,,http://www.ikebarberlearningcentre.ubc.ca/,,,,Library,Current,AD-210,{F5F2A2DF-00B8-49A3-BB9B-ACEBF7C1D209},49.267876043108132,-123.25297605488595
82,8691,Walter Gage Residence,housing_student,,,,,,,SHHS,Current,AD-297,{0861AAB0-FD2F-4616-A0D4-E8F2AD0AD45D},49.269527045668944,-123.24982936863324
267,551,Thunderbird Parkade,parking,,,,,,,Parking,Current,AD-224,{30BB6767-60EB-4A7A-80EC-DE615999E7E3},49.261143205081744,-123.24343137217541
263,528,Rose Garden Parkade,parking,,,,,,,Parking,Current,AD-218,{45C45116-13D7-415B-BABC-F6602DCDACFB},49.269577023191921,-123.25657469500173
264,792,North Parkade,parking,,,,,,,Parking,Current,AD-272,{3615A4E3-190B-43E6-AD50-77772F24C756},49.269061995587109,-123.25095740368484
266,467,Health Sciences Parkade,parking,,,,,,,Parking,Current,AD-199,{EFA86C39-4B54-4A61-A6AE-DC19660C7758},49.263365877718627,-123.24782329918401
268,900,West Parkade,parking,,,,,,,Parking,Current,AD-301,{ECCD4504-E867-4F5E-8F8C-FA31C0069B7C},49.262613912847698,-123.25500694973591
265,052,Fraser River Parkade,parking,,,,,,,Parking,Current,AD-109,{C00156A6-19C8-4FA7-90A0-52DE8CBF1EE9},49.266056938381006,-123.25802800518889
268,785,Thunderbird Stadium Parking,parking,,,,,,,Parking,Current,,{CB525073-C6B8-49AD-BA81-65F446BBFB58},49.254897647896875,-123.24423105585062
269,199,David Strangway Parking,parking,,,,,,,Parking,Current,AD-136,{BE73ACC5-F1F2-49E2-9A2F-5BD0BFC0C8AD},49.26569069523417,-123.24638030387941
1,011,Acadia Park Community Centre,community_centre,,,,,,,SHHS,Current,AD-91,{F40650E4-6E09-4542-BD67-98547D184599},49.262732493560968,-123.23729630497607
16,641,Caribou,child_care,,,,,,,SHHS,Current,AD-68,{9E7BFD48-C88B-4623-9180-6087BCD84DF6},49.260815637922725,-123.25308216879169
17,205,Salal,child_care,,,,,,,SHHS,Current,AD-144,{15F0963C-D965-4A26-9355-D840AD7414E3},49.259920794133514,-123.23523417506834
18,202,Discovery,child_care,,,,,,,SHHS,Current,AD-141,{4469D3FA-039C-4BED-8E33-CEB50D0872D9},49.259797250125651,-123.23442030207794
19,201,Tillicum,child_care,,,,,,,SHHS,Current,AD-139,{6641B7AE-ABDF-4863-B0E7-3B3B80CA0BB5},49.259551188042408,-123.23509656519248
20,155,Barish,child_care,,,,,,,SHHS,Current,AD-128,{641A79A2-F103-4962-A25B-BC92E7D20A7B},49.26090497757734,-123.23409672779165
21,204,Little Raven,child_care,,,,,,,SHHS,Current,AD-142,{7151CA5B-644D-4EA4-8D31-E7D4CA8B2E50},49.260104820386282,-123.23376175657307
22,013,Kids Club,child_care,,,,,,,SHHS,Current,AD-92,{99812D3B-91F5-4F16-9815-29B5E326FD99},49.261729981669951,-123.23481241034986
